{
    "type": "FeatureCollection",
    "features": [
      {
        "type": "Feature",
        "geometry": {
          "type": "Polygon",
          "coordinates": [
            [
              [
                12.092423292382037,
                44.695413887975256
              ],
              [
                12.092096651126553,
                44.69420650892812
              ],
              [
                12.091860691330618,
                44.69340536477776
              ],
              [
                12.091703011297206,
                44.69290738793027
              ],
              [
                12.091685382213974,
                44.692705980968015
              ],
              [
                12.09171338632628,
                44.692454097319526
              ],
              [
                12.091830653241612,
                44.69232289524783
              ],
              [
                12.092004373322656,
                44.692214783290154
              ],
              [
                12.092224248820848,
                44.69206602806126
              ],
              [
                12.092977406353599,
                44.6916910846486
              ],
              [
                12.093392195298392,
                44.69144348692888
              ],
              [
                12.093772173575928,
                44.69131993201486
              ],
              [
                12.09424359235254,
                44.69122836418673
              ],
              [
                12.09468106923827,
                44.69114756305536
              ],
              [
                12.094901641954142,
                44.69114158022267
              ],
              [
                12.095033393332354,
                44.69115277843405
              ],
              [
                12.09514446606123,
                44.69116453744835
              ],
              [
                12.095166979675902,
                44.691198394832846
              ],
              [
                12.094839293217001,
                44.691655369154766
              ],
              [
                12.094486912597965,
                44.692167176432896
              ],
              [
                12.0943544765672,
                44.69240219696898
              ],
              [
                12.094266622088686,
                44.692567072100914
              ],
              [
                12.094228932585196,
                44.69263703043845
              ],
              [
                12.094179815383022,
                44.69275161481135
              ],
              [
                12.094131746236956,
                44.69288586680336
              ],
              [
                12.094096414900829,
                44.69300007728682
              ],
              [
                12.094022869256051,
                44.69317441222292
              ],
              [
                12.093792454196183,
                44.69364351769367
              ],
              [
                12.093650156231735,
                44.69395266500837
              ],
              [
                12.093563869753428,
                44.69414704114444
              ],
              [
                12.093401937619076,
                44.69447641653651
              ],
              [
                12.093250908388844,
                44.694751331940616
              ],
              [
                12.093090806897244,
                44.695115125339264
              ],
              [
                12.09299474175989,
                44.695255601950564
              ],
              [
                12.09292197621852,
                44.695444687025905
              ],
              [
                12.092844494668999,
                44.69554526763154
              ],
              [
                12.092805229851304,
                44.695585724090776
              ],
              [
                12.092766226949008,
                44.695631097450956
              ],
              [
                12.092712389229147,
                44.69565717685223
              ],
              [
                12.092678183959398,
                44.69566302802448
              ],
              [
                12.092637347192973,
                44.69567398294884
              ],
              [
                12.09256841270259,
                44.69567585141106
              ],
              [
                12.092554625803709,
                44.69567622509852
              ],
              [
                12.092423292382037,
                44.695413887975256
              ]
            ]
          ]
        },
        "properties": {
          "id": 1,
          "nome": "Abitato",
          "tipo": "certo"
        }
      }
    ]
  }