{
    "type": "FeatureCollection",
    "features": [
      {
        "type": "Feature",
        "geometry": {
          "type": "Polygon",
          "coordinates": [
            [
              [
                12.1199228,
                44.6998685
              ],
              [
                12.120318,
                44.70722
              ],
              [
                12.1206287,
                44.7129962
              ],
              [
                12.1207749,
                44.7172326
              ],
              [
                12.122189,
                44.7263258
              ],
              [
                12.1237586,
                44.7358989
              ],
              [
                12.1255841,
                44.7445892
              ],
              [
                12.1280515,
                44.7459238
              ],
              [
                12.186020091616083,
                44.745462581034246
              ],
              [
                12.185586144408667,
                44.73577109340197
              ],
              [
                12.185730793477806,
                44.72275267717952
              ],
              [
                12.185730793477806,
                44.71190399699414
              ],
              [
                12.185152197201251,
                44.701923211223594
              ],
              [
                12.18529684627039,
                44.6899173384851
              ],
              [
                12.185441495339528,
                44.68037049992197
              ],
              [
                12.186020091616083,
                44.66619489114641
              ],
              [
                12.186309389754358,
                44.66257866441795
              ],
              [
                12.186390754855854,
                44.647033409768945
              ],
              [
                12.1212597,
                44.6522397
              ],
              [
                12.1207343,
                44.6522541
              ],
              [
                12.12057,
                44.6550758
              ],
              [
                12.1209281,
                44.6637055
              ],
              [
                12.1209737,
                44.6684748
              ],
              [
                12.1210279,
                44.6704641
              ],
              [
                12.1210864,
                44.6715518
              ],
              [
                12.1213774,
                44.6720698
              ],
              [
                12.1217584,
                44.6725173
              ],
              [
                12.1222055,
                44.6754837
              ],
              [
                12.1221919,
                44.6768263
              ],
              [
                12.1221616,
                44.6790749
              ],
              [
                12.121596,
                44.6829946
              ],
              [
                12.1207557,
                44.6898916
              ],
              [
                12.1199332,
                44.6966916
              ],
              [
                12.12036,
                44.6972462
              ],
              [
                12.1203765,
                44.6986741
              ],
              [
                12.1199228,
                44.6998685
              ]
            ]
          ]
        },
        "properties": {
          "fid": 1,
          "id": null
        },
        "id": 1
      }
    ]
  }