{
"type": "FeatureCollection",
"name": "palaeochannels",
"features": [
{ "type": "Feature", "properties": { "id": 10, "Tipo": "Paleoalveo incerto" }, "geometry": { "type": "Polygon", "coordinates": [ [ [ 12.0969352, 44.6876256 ], [ 12.0972648, 44.6863153 ], [ 12.0987668, 44.6839988 ], [ 12.0988279, 44.6827759 ], [ 12.0993597, 44.680058 ], [ 12.0990698, 44.6779314 ], [ 12.0992815, 44.6763356 ], [ 12.0999145, 44.6742325 ], [ 12.1016373, 44.6714506 ], [ 12.1028352, 44.669927 ], [ 12.1047651, 44.6682806 ], [ 12.1052452, 44.667916 ], [ 12.1087502, 44.6677694 ], [ 12.1072393, 44.6689555 ], [ 12.1049186, 44.6704979 ], [ 12.1037843, 44.6720703 ], [ 12.1030077, 44.6730866 ], [ 12.1016321, 44.6755241 ], [ 12.1013404, 44.6767411 ], [ 12.101369, 44.6794733 ], [ 12.1012315, 44.6809062 ], [ 12.1009633, 44.6823122 ], [ 12.1006834, 44.6839534 ], [ 12.0969352, 44.6876256 ] ] ] } },
{ "type": "Feature", "properties": { "id": 1, "Tipo": "Paleoalveo" }, "geometry": { "type": "MultiPolygon", "coordinates": [ [ [ [ 12.0933676, 44.7319186 ], [ 12.0932755, 44.7318698 ], [ 12.0931165, 44.731748 ], [ 12.0920178, 44.7315905 ], [ 12.0912313, 44.7314645 ], [ 12.0906563, 44.7314028 ], [ 12.0900566, 44.7311756 ], [ 12.0896425, 44.7308707 ], [ 12.0892272, 44.7305893 ], [ 12.0879725, 44.7299215 ], [ 12.0866707, 44.7292054 ], [ 12.0858195, 44.7287245 ], [ 12.0834634, 44.7276283 ], [ 12.0826817, 44.7274081 ], [ 12.081787, 44.727138 ], [ 12.0804858, 44.7267398 ], [ 12.0801006, 44.726518 ], [ 12.0793809, 44.7260522 ], [ 12.0790499, 44.7257376 ], [ 12.0786583, 44.7253155 ], [ 12.0784057, 44.7250853 ], [ 12.078074, 44.7251122 ], [ 12.0771987, 44.7251133 ], [ 12.077133, 44.7241227 ], [ 12.0772366, 44.7223946 ], [ 12.0775995, 44.7224039 ], [ 12.0789224, 44.7223671 ], [ 12.0798354, 44.7222728 ], [ 12.0811349, 44.722047 ], [ 12.0819413, 44.7217733 ], [ 12.082786, 44.7213946 ], [ 12.0837557, 44.7208307 ], [ 12.0854687, 44.719603 ], [ 12.0868906, 44.7185797 ], [ 12.0880835, 44.7175152 ], [ 12.0887285, 44.716837 ], [ 12.0893351, 44.7162638 ], [ 12.0898016, 44.7158519 ], [ 12.0902823, 44.7151577 ], [ 12.0911074, 44.714178 ], [ 12.0905868, 44.7143531 ], [ 12.0901268, 44.7146357 ], [ 12.0897711, 44.714815 ], [ 12.0887793, 44.7151665 ], [ 12.0881043, 44.7154554 ], [ 12.0870942, 44.7158417 ], [ 12.0865747, 44.7159932 ], [ 12.0857354, 44.7162661 ], [ 12.0833099, 44.7168775 ], [ 12.0825124, 44.7169749 ], [ 12.0820183, 44.7169505 ], [ 12.0813622, 44.7168631 ], [ 12.0809906, 44.7167005 ], [ 12.0802815, 44.7163527 ], [ 12.079844, 44.7161885 ], [ 12.0791821, 44.715889 ], [ 12.0787016, 44.7155941 ], [ 12.0782481, 44.7154177 ], [ 12.0776409, 44.7153432 ], [ 12.0771097, 44.7154003 ], [ 12.0771216, 44.7148355 ], [ 12.0776964, 44.7148973 ], [ 12.0784143, 44.7150687 ], [ 12.0790003, 44.7152368 ], [ 12.0793901, 44.7153645 ], [ 12.0798094, 44.7155636 ], [ 12.0803865, 44.715908 ], [ 12.0813552, 44.7163449 ], [ 12.0818593, 44.716499 ], [ 12.0827181, 44.7164974 ], [ 12.0833812, 44.7164438 ], [ 12.0848354, 44.7160924 ], [ 12.0854044, 44.7159421 ], [ 12.0870188, 44.7153593 ], [ 12.0883811, 44.7148643 ], [ 12.0892946, 44.7144284 ], [ 12.091661, 44.713335 ], [ 12.0919762, 44.7123187 ], [ 12.0922615, 44.711237 ], [ 12.0922721, 44.7108605 ], [ 12.0924397, 44.7104821 ], [ 12.0924494, 44.7099584 ], [ 12.0924806, 44.7093353 ], [ 12.0923935, 44.7079438 ], [ 12.0922905, 44.7073642 ], [ 12.0921492, 44.7068897 ], [ 12.0920355, 44.7061922 ], [ 12.0919884, 44.7058142 ], [ 12.0919025, 44.7045641 ], [ 12.091909, 44.7044347 ], [ 12.091788, 44.704049 ], [ 12.0915142, 44.7029235 ], [ 12.0912961, 44.7023352 ], [ 12.0909796, 44.7014029 ], [ 12.0908575, 44.7012055 ], [ 12.0908758, 44.7000169 ], [ 12.091126, 44.6993051 ], [ 12.0912385, 44.6988724 ], [ 12.0913728, 44.6986639 ], [ 12.0918367, 44.6976396 ], [ 12.0920084, 44.6971789 ], [ 12.0918647, 44.6972459 ], [ 12.0917169, 44.6973952 ], [ 12.0915014, 44.6975781 ], [ 12.0913787, 44.6977221 ], [ 12.0911729, 44.6978758 ], [ 12.0904802, 44.6983585 ], [ 12.0892655, 44.6992106 ], [ 12.0885627, 44.6997283 ], [ 12.0867011, 44.70097 ], [ 12.0864443, 44.7011518 ], [ 12.0862641, 44.7012885 ], [ 12.0857507, 44.7014873 ], [ 12.0852001, 44.7017676 ], [ 12.0849787, 44.7019032 ], [ 12.0848924, 44.7019775 ], [ 12.084608, 44.7022175 ], [ 12.0842905, 44.7026215 ], [ 12.0839669, 44.7029841 ], [ 12.0834675, 44.7033951 ], [ 12.0826079, 44.7044033 ], [ 12.0823429, 44.7047498 ], [ 12.0818787, 44.7054443 ], [ 12.0814269, 44.7060567 ], [ 12.0808123, 44.7066238 ], [ 12.0804215, 44.7070082 ], [ 12.0801159, 44.707177 ], [ 12.0798677, 44.7071883 ], [ 12.0792126, 44.7070832 ], [ 12.0784247, 44.7069924 ], [ 12.0775091, 44.7068159 ], [ 12.0771075, 44.7067585 ], [ 12.0770904, 44.7066051 ], [ 12.0772874, 44.7066278 ], [ 12.0774829, 44.7066799 ], [ 12.0778447, 44.7067068 ], [ 12.079147, 44.7069108 ], [ 12.0797142, 44.7070401 ], [ 12.0800463, 44.7070016 ], [ 12.0802836, 44.7068781 ], [ 12.0804421, 44.706682 ], [ 12.0807006, 44.7064649 ], [ 12.081064, 44.7061328 ], [ 12.0812189, 44.7060073 ], [ 12.0816778, 44.7054186 ], [ 12.0818191, 44.7052338 ], [ 12.0821649, 44.7045951 ], [ 12.0824971, 44.7042268 ], [ 12.0833381, 44.7032594 ], [ 12.0844824, 44.7021701 ], [ 12.084589, 44.7020198 ], [ 12.0840537, 44.7021592 ], [ 12.0834831, 44.7023448 ], [ 12.0829979, 44.7024736 ], [ 12.0824315, 44.7025769 ], [ 12.0819698, 44.7025651 ], [ 12.0817502, 44.7026654 ], [ 12.0814793, 44.7027998 ], [ 12.0807149, 44.7032276 ], [ 12.0800029, 44.7035979 ], [ 12.079427, 44.7038893 ], [ 12.0789406, 44.7040417 ], [ 12.078274, 44.7041659 ], [ 12.0775567, 44.7043123 ], [ 12.0770073, 44.7044042 ], [ 12.0770339, 44.7042048 ], [ 12.0776168, 44.704102 ], [ 12.0787993, 44.7038968 ], [ 12.079102, 44.7037868 ], [ 12.0793705, 44.7036995 ], [ 12.0801997, 44.7032969 ], [ 12.0806095, 44.7030248 ], [ 12.0815253, 44.7025419 ], [ 12.0807039, 44.7024621 ], [ 12.0797082, 44.7022364 ], [ 12.0792549, 44.70206 ], [ 12.0781751, 44.7015379 ], [ 12.0774593, 44.7010015 ], [ 12.0769731, 44.7004946 ], [ 12.0770215, 44.7001897 ], [ 12.0773382, 44.7004568 ], [ 12.0779044, 44.7010129 ], [ 12.0784154, 44.7013557 ], [ 12.0788988, 44.7015917 ], [ 12.079464, 44.7018417 ], [ 12.0799845, 44.7019963 ], [ 12.0810137, 44.702211 ], [ 12.0822631, 44.7023136 ], [ 12.0831958, 44.702149 ], [ 12.0842369, 44.7017989 ], [ 12.0851602, 44.7014928 ], [ 12.0861654, 44.700871 ], [ 12.0871523, 44.7002839 ], [ 12.0893251, 44.6987618 ], [ 12.0922002, 44.6967276 ], [ 12.0925116, 44.6961116 ], [ 12.0928849, 44.6952498 ], [ 12.0935113, 44.6939472 ], [ 12.094322, 44.6922607 ], [ 12.0948701, 44.6912032 ], [ 12.0947559, 44.6911768 ], [ 12.0935743, 44.6913704 ], [ 12.0931016, 44.691582 ], [ 12.092507, 44.6919201 ], [ 12.0920489, 44.6921674 ], [ 12.0915444, 44.6923547 ], [ 12.0906407, 44.6926025 ], [ 12.0902268, 44.6926272 ], [ 12.0894026, 44.6926062 ], [ 12.0883323, 44.6925554 ], [ 12.0877566, 44.6925171 ], [ 12.0860552, 44.6925443 ], [ 12.0852286, 44.6925703 ], [ 12.084173, 44.6925551 ], [ 12.0836179, 44.692435 ], [ 12.0829868, 44.6921834 ], [ 12.0822874, 44.6919771 ], [ 12.0818453, 44.691907 ], [ 12.0813155, 44.6919405 ], [ 12.0801821, 44.6921587 ], [ 12.0793632, 44.6923615 ], [ 12.0787662, 44.6924168 ], [ 12.0779609, 44.6923491 ], [ 12.0773545, 44.692263 ], [ 12.0769783, 44.6921945 ], [ 12.0770043, 44.6920067 ], [ 12.0778391, 44.6921459 ], [ 12.0782506, 44.6921682 ], [ 12.0790442, 44.6921414 ], [ 12.0794274, 44.6920688 ], [ 12.0799438, 44.691976 ], [ 12.0807603, 44.6918203 ], [ 12.0813603, 44.6917062 ], [ 12.0819036, 44.6917318 ], [ 12.0827714, 44.6918718 ], [ 12.0830934, 44.6920331 ], [ 12.0836932, 44.6922485 ], [ 12.08402, 44.6923157 ], [ 12.0852533, 44.6924061 ], [ 12.0856937, 44.6923467 ], [ 12.0862309, 44.692331 ], [ 12.0872803, 44.6923048 ], [ 12.0880651, 44.6922895 ], [ 12.0890927, 44.6923687 ], [ 12.0901056, 44.6924122 ], [ 12.0907443, 44.6923461 ], [ 12.0913122, 44.6922134 ], [ 12.0919674, 44.6919829 ], [ 12.0924484, 44.6916066 ], [ 12.0932234, 44.6912908 ], [ 12.0935667, 44.6911936 ], [ 12.0944082, 44.6910325 ], [ 12.0950632, 44.6909727 ], [ 12.0956041, 44.6900563 ], [ 12.095733, 44.6898435 ], [ 12.0955787, 44.6900315 ], [ 12.0949323, 44.6897561 ], [ 12.0930355, 44.6887424 ], [ 12.0917428, 44.6881914 ], [ 12.0907968, 44.6878023 ], [ 12.0902028, 44.6876341 ], [ 12.0894649, 44.6873739 ], [ 12.0890546, 44.6871633 ], [ 12.0879285, 44.686746 ], [ 12.0874205, 44.6865094 ], [ 12.0867819, 44.686081 ], [ 12.0859522, 44.6855124 ], [ 12.0840849, 44.6842461 ], [ 12.0832271, 44.6837474 ], [ 12.0825905, 44.6832778 ], [ 12.0808122, 44.6824007 ], [ 12.0789214, 44.6816931 ], [ 12.0741287, 44.68011 ], [ 12.0745608, 44.6796649 ], [ 12.0780879, 44.6808703 ], [ 12.0797932, 44.6815178 ], [ 12.0814051, 44.6821246 ], [ 12.0821213, 44.682452 ], [ 12.0827675, 44.6828762 ], [ 12.0837292, 44.6834423 ], [ 12.0846568, 44.6840311 ], [ 12.0861236, 44.6850576 ], [ 12.0866651, 44.6854482 ], [ 12.0875304, 44.6859647 ], [ 12.0881708, 44.6863578 ], [ 12.0888831, 44.686635 ], [ 12.0897248, 44.6869626 ], [ 12.09037, 44.6872616 ], [ 12.091379, 44.6875463 ], [ 12.0921195, 44.6879184 ], [ 12.0931839, 44.6884165 ], [ 12.0947639, 44.6891631 ], [ 12.0958066, 44.689722 ], [ 12.095892, 44.689581 ], [ 12.0962587, 44.6888486 ], [ 12.0966136, 44.6883513 ], [ 12.0971487, 44.6875526 ], [ 12.0979792, 44.6864552 ], [ 12.0988833, 44.6855363 ], [ 12.1009639, 44.6835289 ], [ 12.10255, 44.6821681 ], [ 12.1041043, 44.680783 ], [ 12.1044368, 44.6804029 ], [ 12.104588, 44.6800182 ], [ 12.1052823, 44.6789998 ], [ 12.1064413, 44.6769335 ], [ 12.1067649, 44.6764001 ], [ 12.1068713, 44.6759201 ], [ 12.1073607, 44.6747081 ], [ 12.1078442, 44.6736136 ], [ 12.1083789, 44.6728148 ], [ 12.1089419, 44.6721109 ], [ 12.1100685, 44.6706913 ], [ 12.1119222, 44.6685837 ], [ 12.1128479, 44.6672178 ], [ 12.1169549, 44.6672392 ], [ 12.115766, 44.668257 ], [ 12.1153042, 44.6685868 ], [ 12.1153684, 44.6686237 ], [ 12.1138118, 44.6700678 ], [ 12.1125382, 44.6714602 ], [ 12.111924, 44.6721982 ], [ 12.1112898, 44.6730063 ], [ 12.110314, 44.6747122 ], [ 12.1090712, 44.6774711 ], [ 12.1091331, 44.6778847 ], [ 12.1122005, 44.6769263 ], [ 12.1141019, 44.6761856 ], [ 12.1153218, 44.675875 ], [ 12.1194609, 44.673931 ], [ 12.1200993, 44.6736999 ], [ 12.1210783, 44.672924 ], [ 12.1217584, 44.6725173 ], [ 12.1233769, 44.6714867 ], [ 12.1246774, 44.6702126 ], [ 12.1266166, 44.6683659 ], [ 12.1277157, 44.6671574 ], [ 12.1332279, 44.6671194 ], [ 12.1329481, 44.667442 ], [ 12.1327945, 44.6675441 ], [ 12.1325218, 44.6680553 ], [ 12.1320823, 44.6689391 ], [ 12.1319524, 44.6692301 ], [ 12.131495, 44.6698073 ], [ 12.1313151, 44.6701089 ], [ 12.1303039, 44.6708723 ], [ 12.1290392, 44.6717588 ], [ 12.1284927, 44.6721336 ], [ 12.127871, 44.6726948 ], [ 12.1272996, 44.6729041 ], [ 12.1263183, 44.6733975 ], [ 12.1240161, 44.6749053 ], [ 12.1222055, 44.6754837 ], [ 12.1212125, 44.6758766 ], [ 12.1202494, 44.6761643 ], [ 12.1199676, 44.6763573 ], [ 12.1196745, 44.6764441 ], [ 12.1190254, 44.6765572 ], [ 12.1184122, 44.6767772 ], [ 12.1176957, 44.6770829 ], [ 12.1169237, 44.6775108 ], [ 12.1163126, 44.6778544 ], [ 12.1154469, 44.678174 ], [ 12.1148272, 44.6783585 ], [ 12.113852, 44.6785575 ], [ 12.1128559, 44.6788443 ], [ 12.1117675, 44.6791641 ], [ 12.1114982, 44.6792691 ], [ 12.1111072, 44.6795006 ], [ 12.1106234, 44.6797709 ], [ 12.1100543, 44.6800979 ], [ 12.1097162, 44.6802601 ], [ 12.1094555, 44.6803594 ], [ 12.1092104, 44.6804768 ], [ 12.1084221, 44.6808984 ], [ 12.1078206, 44.6813776 ], [ 12.106154, 44.6825362 ], [ 12.1053079, 44.6831211 ], [ 12.1046362, 44.6838517 ], [ 12.1034841, 44.6851116 ], [ 12.1032587, 44.6853296 ], [ 12.1031752, 44.6855159 ], [ 12.1031093, 44.685679 ], [ 12.1029777, 44.6858346 ], [ 12.1027488, 44.686288 ], [ 12.1025037, 44.686735 ], [ 12.1021244, 44.6872258 ], [ 12.1019935, 44.6873696 ], [ 12.101867, 44.6877549 ], [ 12.101423, 44.6888798 ], [ 12.1010705, 44.6898245 ], [ 12.1008936, 44.690391 ], [ 12.1007042, 44.6908807 ], [ 12.1005008, 44.6914818 ], [ 12.1002793, 44.6922827 ], [ 12.1001857, 44.6926688 ], [ 12.1000568, 44.6931012 ], [ 12.099785, 44.6940832 ], [ 12.0994309, 44.6950573 ], [ 12.0993518, 44.6956499 ], [ 12.0992439, 44.6964889 ], [ 12.099359, 44.6966626 ], [ 12.0992286, 44.6969595 ], [ 12.0990293, 44.6973135 ], [ 12.0987241, 44.6981358 ], [ 12.0985252, 44.6988136 ], [ 12.0984508, 44.699312 ], [ 12.0983913, 44.6998403 ], [ 12.0983557, 44.6998924 ], [ 12.098215, 44.7002303 ], [ 12.0980746, 44.7005622 ], [ 12.0979637, 44.7008008 ], [ 12.0978259, 44.7010798 ], [ 12.0977229, 44.7016541 ], [ 12.0974129, 44.7025704 ], [ 12.0970132, 44.7036316 ], [ 12.0969523, 44.7040245 ], [ 12.0969582, 44.7044014 ], [ 12.0969391, 44.7047836 ], [ 12.0969361, 44.705172 ], [ 12.0969889, 44.7057679 ], [ 12.0970004, 44.7061979 ], [ 12.0970387, 44.7067522 ], [ 12.0971751, 44.7073267 ], [ 12.097327, 44.7079193 ], [ 12.0974778, 44.7087001 ], [ 12.0975786, 44.7093267 ], [ 12.0976613, 44.7096526 ], [ 12.0977532, 44.7102907 ], [ 12.0977868, 44.7107742 ], [ 12.0977698, 44.7117745 ], [ 12.0977749, 44.7124987 ], [ 12.0975923, 44.7130121 ], [ 12.0973636, 44.7137892 ], [ 12.0971074, 44.7141241 ], [ 12.0968645, 44.7145241 ], [ 12.0965848, 44.7149997 ], [ 12.0962983, 44.7156106 ], [ 12.095949, 44.716155 ], [ 12.0955126, 44.7167914 ], [ 12.0950556, 44.7175098 ], [ 12.094441, 44.7184066 ], [ 12.0943061, 44.7186268 ], [ 12.0931567, 44.7196513 ], [ 12.0918614, 44.7204542 ], [ 12.090223, 44.7213484 ], [ 12.0883882, 44.7222081 ], [ 12.0864107, 44.7231113 ], [ 12.0856034, 44.7234027 ], [ 12.0848974, 44.7236495 ], [ 12.0837054, 44.724037 ], [ 12.0831296, 44.7241577 ], [ 12.0816846, 44.7244857 ], [ 12.0806728, 44.7247365 ], [ 12.0788747, 44.7250261 ], [ 12.0790899, 44.7251787 ], [ 12.0794851, 44.7255303 ], [ 12.0797519, 44.7258079 ], [ 12.0800858, 44.7260637 ], [ 12.0805517, 44.7263229 ], [ 12.0812064, 44.7266045 ], [ 12.0817586, 44.7267893 ], [ 12.082279, 44.7269498 ], [ 12.0830353, 44.7271811 ], [ 12.0834011, 44.7272964 ], [ 12.0840664, 44.7275312 ], [ 12.0852242, 44.7279905 ], [ 12.0854642, 44.7281438 ], [ 12.0859457, 44.728421 ], [ 12.0873609, 44.7291812 ], [ 12.0887962, 44.7300361 ], [ 12.0903431, 44.7309703 ], [ 12.090713, 44.7311681 ], [ 12.0912214, 44.7312399 ], [ 12.0917281, 44.731347 ], [ 12.0924538, 44.7313655 ], [ 12.0932056, 44.731526 ], [ 12.0936898, 44.7317502 ], [ 12.0933676, 44.7319186 ] ] ], [ [ [ 12.0779146, 44.7296158 ], [ 12.0778617, 44.7293555 ], [ 12.0786022, 44.7294097 ], [ 12.0794522, 44.7295845 ], [ 12.0807929, 44.7298543 ], [ 12.0818526, 44.7301287 ], [ 12.0827009, 44.7303387 ], [ 12.0840216, 44.7306786 ], [ 12.0846578, 44.7308361 ], [ 12.0856351, 44.7311083 ], [ 12.0860239, 44.7312595 ], [ 12.0867897, 44.7314675 ], [ 12.0872616, 44.731609 ], [ 12.0873541, 44.7317409 ], [ 12.0873652, 44.7318471 ], [ 12.085767, 44.7314414 ], [ 12.084342, 44.73104 ], [ 12.0826549, 44.7305966 ], [ 12.0806388, 44.7301271 ], [ 12.078671, 44.7296823 ], [ 12.0781777, 44.7296402 ], [ 12.0779037, 44.7296685 ], [ 12.0779146, 44.7296158 ] ] ], [ [ [ 12.1044541, 44.6711153 ], [ 12.1051511, 44.6710329 ], [ 12.1057849, 44.670896 ], [ 12.1061677, 44.6708291 ], [ 12.1064852, 44.6707489 ], [ 12.1068874, 44.6706237 ], [ 12.1072128, 44.6705495 ], [ 12.1076186, 44.6703538 ], [ 12.1077916, 44.6703582 ], [ 12.1078163, 44.6705236 ], [ 12.1074241, 44.6706137 ], [ 12.1072635, 44.6706921 ], [ 12.1063361, 44.6709276 ], [ 12.1059759, 44.6710362 ], [ 12.1055752, 44.671132 ], [ 12.1048593, 44.671261 ], [ 12.1043435, 44.671348 ], [ 12.1042452, 44.6713337 ], [ 12.1044541, 44.6711153 ] ] ], [ [ [ 12.0862509, 44.6730201 ], [ 12.086647, 44.6733481 ], [ 12.0871178, 44.673831 ], [ 12.0876403, 44.6742682 ], [ 12.0879781, 44.6744417 ], [ 12.0883777, 44.6746991 ], [ 12.0889304, 44.6748663 ], [ 12.0894671, 44.6750212 ], [ 12.0900427, 44.6750595 ], [ 12.0904971, 44.6748827 ], [ 12.0914199, 44.6745766 ], [ 12.0915697, 44.6744273 ], [ 12.0920144, 44.6741973 ], [ 12.0924997, 44.6738947 ], [ 12.0929013, 44.6736194 ], [ 12.0931396, 44.67339 ], [ 12.0934205, 44.6732177 ], [ 12.0937863, 44.6728326 ], [ 12.0940289, 44.6725179 ], [ 12.0943624, 44.6721173 ], [ 12.0946618, 44.6717393 ], [ 12.0950197, 44.6714276 ], [ 12.0954809, 44.6711126 ], [ 12.0958542, 44.6709073 ], [ 12.0962424, 44.6707317 ], [ 12.0965733, 44.6706312 ], [ 12.0970602, 44.6705465 ], [ 12.0973549, 44.6705922 ], [ 12.09758, 44.6706274 ], [ 12.0980144, 44.670765 ], [ 12.0984939, 44.6709097 ], [ 12.0989205, 44.6710412 ], [ 12.0992717, 44.6711119 ], [ 12.099739, 44.6711709 ], [ 12.1000556, 44.6711907 ], [ 12.1005227, 44.6712526 ], [ 12.1012022, 44.6712758 ], [ 12.1017551, 44.6712722 ], [ 12.1020693, 44.6712566 ], [ 12.1019787, 44.6714191 ], [ 12.1014667, 44.6714297 ], [ 12.1006221, 44.6714111 ], [ 12.1001873, 44.6713618 ], [ 12.099577, 44.6713581 ], [ 12.0992048, 44.6712957 ], [ 12.0985122, 44.671122 ], [ 12.0982319, 44.6710355 ], [ 12.0978188, 44.6708837 ], [ 12.097256, 44.6707546 ], [ 12.0970753, 44.6707382 ], [ 12.0966678, 44.6708043 ], [ 12.0958904, 44.6710907 ], [ 12.0955133, 44.6713725 ], [ 12.0951257, 44.6716187 ], [ 12.0948095, 44.6719197 ], [ 12.0945938, 44.6721909 ], [ 12.0942544, 44.6726267 ], [ 12.0941748, 44.6727336 ], [ 12.0938775, 44.6730704 ], [ 12.0937074, 44.6732544 ], [ 12.0934768, 44.6734104 ], [ 12.0933468, 44.6735366 ], [ 12.0929391, 44.6738529 ], [ 12.0925189, 44.6740895 ], [ 12.0918883, 44.6744914 ], [ 12.0917023, 44.6745808 ], [ 12.0913462, 44.6747719 ], [ 12.0912022, 44.6748477 ], [ 12.0909597, 44.6749121 ], [ 12.090643, 44.6750571 ], [ 12.0904035, 44.6751452 ], [ 12.0900916, 44.6751961 ], [ 12.08968, 44.6752592 ], [ 12.089435, 44.6752088 ], [ 12.0890878, 44.6751411 ], [ 12.088894, 44.6750567 ], [ 12.0881882, 44.6748179 ], [ 12.0877704, 44.6745953 ], [ 12.0875687, 44.6745048 ], [ 12.0870536, 44.674165 ], [ 12.0866939, 44.6738526 ], [ 12.0864214, 44.6735278 ], [ 12.0861653, 44.6732063 ], [ 12.0859403, 44.6730033 ], [ 12.0862996, 44.6729948 ], [ 12.0862509, 44.6730201 ] ] ] ] } }
]
}
