{
    "type": "FeatureCollection",
    "features": [
      {
        "type": "Feature",
        "properties": {},
        "geometry": {
          "type": "Polygon",
          "coordinates": [
            [
              [
                12.1087004,
                44.7015303
              ],
              [
                12.1086811,
                44.701414
              ],
              [
                12.1093328,
                44.7012542
              ],
              [
                12.1093457,
                44.7013592
              ],
              [
                12.1087004,
                44.7015303
              ]
            ]
          ]
        }
      },
      {
        "type": "Feature",
        "properties": {},
        "geometry": {
          "type": "Polygon",
          "coordinates": [
            [
              [
                12.1104984,
                44.7042207
              ],
              [
                12.1104841,
                44.7041581
              ],
              [
                12.1108509,
                44.7040586
              ],
              [
                12.1108755,
                44.7041185
              ],
              [
                12.1104984,
                44.7042207
              ]
            ]
          ]
        }
      },
      {
        "type": "Feature",
        "properties": {},
        "geometry": {
          "type": "Polygon",
          "coordinates": [
            [
              [
                12.1098607,
                44.7040798
              ],
              [
                12.1098633,
                44.7041231
              ],
              [
                12.1100538,
                44.7040678
              ],
              [
                12.1100175,
                44.7040365
              ],
              [
                12.1100175,
                44.7040365
              ],
              [
                12.1098607,
                44.7040798
              ]
            ]
          ]
        }
      }
    ]
  }