{
  "type": "FeatureCollection",
  "features": [
    {
      "type": "Feature",
      "geometry": {
        "type": "MultiPolygon",
        "coordinates": [
          [
            [
              [
                12.1280515,
                44.7459238
              ],
              [
                12.1255841,
                44.7445892
              ],
              [
                12.122189,
                44.7263258
              ],
              [
                12.1207749,
                44.7172326
              ],
              [
                12.120318,
                44.70722
              ],
              [
                12.1199228,
                44.6998685
              ],
              [
                12.1203765,
                44.6986741
              ],
              [
                12.12036,
                44.6972462
              ],
              [
                12.1199332,
                44.6966916
              ],
              [
                12.1221616,
                44.6790749
              ],
              [
                12.1222055,
                44.6754837
              ],
              [
                12.1217584,
                44.6725173
              ],
              [
                12.121517999664693,
                44.67213276509212
              ],
              [
                12.1213774,
                44.6720698
              ],
              [
                12.1210864,
                44.6715518
              ],
              [
                12.12057,
                44.6550758
              ],
              [
                12.1207343,
                44.6522541
              ],
              [
                12.074111071920159,
                44.65401372456398
              ],
              [
                12.0770215,
                44.7001897
              ],
              [
                12.078111434178714,
                44.74619979000907
              ],
              [
                12.1280515,
                44.7459238
              ]
            ]
          ]
        ]
      },
      "properties": {
        "fid": 1,
        "id": 1,
        "Bordo": null
      },
      "id": 1
    }
  ]
}