{
"type": "FeatureCollection",
"name": "ustrina",
"bbox": [ 12.1086001, 44.7006460, 12.1129590, 44.7041867 ],                                                                        
"features": [
{ "type": "Feature", "properties": { "id": 1 }, "bbox": [ 12.1102341, 44.7041657, 12.1102652, 44.7041867 ], "geometry": { "type": "Polygon", "coordinates": [ [ [ 12.1102455, 44.7041866 ], [ 12.1102402, 44.7041851 ], [ 12.1102402, 44.7041851 ], [ 12.1102373, 44.704181 ], [ 12.1102341, 44.7041692 ], [ 12.1102341, 44.7041691 ], [ 12.1102342, 44.704169 ], [ 12.1102342, 44.704169 ], [ 12.1102342, 44.7041689 ], [ 12.1102343, 44.7041688 ], [ 12.1102343, 44.7041688 ], [ 12.1102343, 44.7041687 ], [ 12.1102344, 44.7041686 ], [ 12.1102344, 44.7041685 ], [ 12.1102345, 44.7041685 ], [ 12.1102345, 44.7041684 ], [ 12.1102346, 44.7041683 ], [ 12.1102346, 44.7041683 ], [ 12.1102347, 44.7041682 ], [ 12.1102347, 44.7041681 ], [ 12.1102348, 44.7041681 ], [ 12.1102348, 44.704168 ], [ 12.1102349, 44.7041679 ], [ 12.1102349, 44.7041679 ], [ 12.110235, 44.7041678 ], [ 12.1102351, 44.7041677 ], [ 12.1102351, 44.7041677 ], [ 12.1102352, 44.7041676 ], [ 12.1102353, 44.7041676 ], [ 12.1102353, 44.7041675 ], [ 12.1102354, 44.7041674 ], [ 12.1102355, 44.7041674 ], [ 12.1102355, 44.7041673 ], [ 12.1102356, 44.7041673 ], [ 12.1102357, 44.7041672 ], [ 12.1102358, 44.7041672 ], [ 12.1102359, 44.7041671 ], [ 12.1102359, 44.7041671 ], [ 12.110236, 44.704167 ], [ 12.1102361, 44.704167 ], [ 12.1102362, 44.7041669 ], [ 12.1102363, 44.7041669 ], [ 12.1102363, 44.7041668 ], [ 12.1102364, 44.7041668 ], [ 12.1102365, 44.7041667 ], [ 12.1102366, 44.7041667 ], [ 12.1102367, 44.7041666 ], [ 12.1102368, 44.7041666 ], [ 12.1102369, 44.7041666 ], [ 12.110237, 44.7041665 ], [ 12.1102371, 44.7041665 ], [ 12.1102372, 44.7041665 ], [ 12.1102373, 44.7041664 ], [ 12.1102374, 44.7041664 ], [ 12.1102374, 44.7041663 ], [ 12.1102375, 44.7041663 ], [ 12.1102376, 44.7041663 ], [ 12.1102377, 44.7041663 ], [ 12.1102378, 44.7041662 ], [ 12.1102379, 44.7041662 ], [ 12.110238, 44.7041662 ], [ 12.1102381, 44.7041662 ], [ 12.1102383, 44.7041661 ], [ 12.1102384, 44.7041661 ], [ 12.1102385, 44.7041661 ], [ 12.1102386, 44.7041661 ], [ 12.1102387, 44.704166 ], [ 12.1102388, 44.704166 ], [ 12.1102389, 44.704166 ], [ 12.110239, 44.704166 ], [ 12.1102391, 44.704166 ], [ 12.1102392, 44.704166 ], [ 12.1102393, 44.704166 ], [ 12.1102394, 44.704166 ], [ 12.1102395, 44.704166 ], [ 12.1102396, 44.7041659 ], [ 12.1102397, 44.7041659 ], [ 12.1102398, 44.7041659 ], [ 12.1102399, 44.7041659 ], [ 12.1102401, 44.7041659 ], [ 12.1102402, 44.7041659 ], [ 12.1102403, 44.7041659 ], [ 12.1102404, 44.7041659 ], [ 12.1102405, 44.7041659 ], [ 12.1102406, 44.7041659 ], [ 12.1102407, 44.704166 ], [ 12.1102408, 44.704166 ], [ 12.1102413, 44.7041659 ], [ 12.1102417, 44.7041659 ], [ 12.1102422, 44.7041658 ], [ 12.1102427, 44.7041658 ], [ 12.1102431, 44.7041658 ], [ 12.1102436, 44.7041657 ], [ 12.1102441, 44.7041657 ], [ 12.1102445, 44.7041657 ], [ 12.110245, 44.7041657 ], [ 12.1102455, 44.7041657 ], [ 12.1102459, 44.7041657 ], [ 12.1102464, 44.7041657 ], [ 12.1102469, 44.7041657 ], [ 12.1102473, 44.7041658 ], [ 12.1102478, 44.7041658 ], [ 12.1102483, 44.7041658 ], [ 12.1102487, 44.7041659 ], [ 12.1102492, 44.7041659 ], [ 12.1102497, 44.704166 ], [ 12.1102501, 44.704166 ], [ 12.1102506, 44.7041661 ], [ 12.110251, 44.7041661 ], [ 12.1102515, 44.7041662 ], [ 12.1102519, 44.7041663 ], [ 12.1102524, 44.7041664 ], [ 12.1102528, 44.7041665 ], [ 12.1102533, 44.7041666 ], [ 12.1102537, 44.7041667 ], [ 12.1102542, 44.7041668 ], [ 12.1102546, 44.7041669 ], [ 12.1102551, 44.704167 ], [ 12.1102555, 44.7041671 ], [ 12.1102559, 44.7041673 ], [ 12.1102564, 44.7041674 ], [ 12.1102568, 44.7041675 ], [ 12.1102572, 44.7041677 ], [ 12.1102576, 44.7041678 ], [ 12.1102578, 44.704168 ], [ 12.1102581, 44.7041681 ], [ 12.1102583, 44.7041682 ], [ 12.1102585, 44.7041683 ], [ 12.1102587, 44.7041684 ], [ 12.1102589, 44.7041685 ], [ 12.1102591, 44.7041687 ], [ 12.1102593, 44.7041688 ], [ 12.1102595, 44.7041689 ], [ 12.1102597, 44.704169 ], [ 12.1102599, 44.7041692 ], [ 12.1102601, 44.7041693 ], [ 12.1102603, 44.7041695 ], [ 12.1102605, 44.7041696 ], [ 12.1102607, 44.7041697 ], [ 12.1102609, 44.7041699 ], [ 12.1102611, 44.70417 ], [ 12.1102612, 44.7041702 ], [ 12.1102614, 44.7041703 ], [ 12.1102616, 44.7041705 ], [ 12.1102617, 44.7041707 ], [ 12.1102619, 44.7041708 ], [ 12.110262, 44.704171 ], [ 12.1102622, 44.7041711 ], [ 12.1102623, 44.7041713 ], [ 12.1102625, 44.7041715 ], [ 12.1102626, 44.7041716 ], [ 12.1102627, 44.7041718 ], [ 12.1102629, 44.704172 ], [ 12.110263, 44.7041721 ], [ 12.1102631, 44.7041723 ], [ 12.1102632, 44.7041725 ], [ 12.1102633, 44.7041727 ], [ 12.1102634, 44.7041728 ], [ 12.1102635, 44.704173 ], [ 12.1102636, 44.7041732 ], [ 12.1102637, 44.7041734 ], [ 12.1102638, 44.7041736 ], [ 12.1102639, 44.7041738 ], [ 12.110264, 44.7041739 ], [ 12.1102641, 44.7041741 ], [ 12.1102641, 44.7041743 ], [ 12.1102642, 44.7041745 ], [ 12.1102643, 44.7041747 ], [ 12.1102643, 44.7041749 ], [ 12.1102644, 44.7041751 ], [ 12.1102644, 44.7041753 ], [ 12.1102645, 44.7041755 ], [ 12.1102645, 44.7041756 ], [ 12.1102646, 44.7041758 ], [ 12.1102646, 44.704176 ], [ 12.1102646, 44.7041762 ], [ 12.1102646, 44.7041764 ], [ 12.1102646, 44.7041766 ], [ 12.1102647, 44.7041768 ], [ 12.1102647, 44.704177 ], [ 12.1102647, 44.7041771 ], [ 12.1102648, 44.7041772 ], [ 12.1102648, 44.7041773 ], [ 12.1102649, 44.7041775 ], [ 12.1102649, 44.7041776 ], [ 12.1102649, 44.7041777 ], [ 12.110265, 44.7041778 ], [ 12.110265, 44.7041779 ], [ 12.110265, 44.7041781 ], [ 12.1102651, 44.7041782 ], [ 12.1102651, 44.7041783 ], [ 12.1102651, 44.7041784 ], [ 12.1102651, 44.7041785 ], [ 12.1102651, 44.7041787 ], [ 12.1102652, 44.7041788 ], [ 12.1102652, 44.7041789 ], [ 12.1102652, 44.704179 ], [ 12.1102652, 44.7041791 ], [ 12.1102652, 44.7041793 ], [ 12.1102652, 44.7041794 ], [ 12.1102652, 44.7041795 ], [ 12.1102652, 44.7041796 ], [ 12.1102652, 44.7041797 ], [ 12.1102651, 44.7041799 ], [ 12.1102651, 44.70418 ], [ 12.1102651, 44.7041801 ], [ 12.1102651, 44.7041802 ], [ 12.1102651, 44.7041803 ], [ 12.110265, 44.7041805 ], [ 12.110265, 44.7041806 ], [ 12.110265, 44.7041807 ], [ 12.1102649, 44.7041808 ], [ 12.1102649, 44.7041809 ], [ 12.1102649, 44.704181 ], [ 12.1102648, 44.7041812 ], [ 12.1102648, 44.7041813 ], [ 12.1102647, 44.7041814 ], [ 12.1102647, 44.7041815 ], [ 12.1102646, 44.7041816 ], [ 12.1102645, 44.7041817 ], [ 12.1102645, 44.7041818 ], [ 12.1102644, 44.704182 ], [ 12.1102643, 44.7041821 ], [ 12.1102643, 44.7041822 ], [ 12.1102642, 44.7041823 ], [ 12.1102641, 44.7041824 ], [ 12.110264, 44.7041825 ], [ 12.110264, 44.7041826 ], [ 12.1102639, 44.7041827 ], [ 12.1102638, 44.7041828 ], [ 12.1102637, 44.7041829 ], [ 12.1102636, 44.704183 ], [ 12.1102635, 44.7041831 ], [ 12.1102634, 44.7041832 ], [ 12.1102633, 44.7041833 ], [ 12.1102632, 44.7041834 ], [ 12.1102631, 44.7041835 ], [ 12.110263, 44.7041836 ], [ 12.1102629, 44.7041837 ], [ 12.1102628, 44.7041838 ], [ 12.1102627, 44.7041839 ], [ 12.1102626, 44.704184 ], [ 12.1102625, 44.7041841 ], [ 12.1102623, 44.7041841 ], [ 12.1102622, 44.7041842 ], [ 12.1102621, 44.7041843 ], [ 12.110262, 44.7041844 ], [ 12.1102619, 44.7041845 ], [ 12.1102617, 44.7041846 ], [ 12.1102616, 44.7041846 ], [ 12.1102615, 44.7041847 ], [ 12.1102613, 44.7041848 ], [ 12.1102612, 44.7041848 ], [ 12.1102611, 44.7041849 ], [ 12.1102609, 44.704185 ], [ 12.1102608, 44.7041851 ], [ 12.1102606, 44.7041851 ], [ 12.1102605, 44.7041852 ], [ 12.1102603, 44.7041852 ], [ 12.1102602, 44.7041853 ], [ 12.1102596, 44.7041854 ], [ 12.110259, 44.7041856 ], [ 12.1102584, 44.7041857 ], [ 12.1102578, 44.7041858 ], [ 12.1102572, 44.7041859 ], [ 12.1102566, 44.704186 ], [ 12.110256, 44.7041861 ], [ 12.1102554, 44.7041862 ], [ 12.1102548, 44.7041863 ], [ 12.1102542, 44.7041864 ], [ 12.1102536, 44.7041865 ], [ 12.110253, 44.7041865 ], [ 12.1102523, 44.7041866 ], [ 12.1102517, 44.7041866 ], [ 12.1102511, 44.7041867 ], [ 12.1102505, 44.7041867 ], [ 12.1102499, 44.7041867 ], [ 12.1102492, 44.7041867 ], [ 12.1102486, 44.7041867 ], [ 12.110248, 44.7041867 ], [ 12.1102474, 44.7041867 ], [ 12.1102468, 44.7041867 ], [ 12.1102461, 44.7041867 ], [ 12.1102455, 44.7041866 ] ] ] } },
{ "type": "Feature", "properties": { "id": 1 }, "bbox": [ 12.1086001, 44.7016348, 12.1086312, 44.7016558 ], "geometry": { "type": "Polygon", "coordinates": [ [ [ 12.1086115, 44.7016557 ], [ 12.1086062, 44.7016543 ], [ 12.1086062, 44.7016543 ], [ 12.1086034, 44.7016501 ], [ 12.1086001, 44.7016383 ], [ 12.1086002, 44.7016382 ], [ 12.1086002, 44.7016381 ], [ 12.1086002, 44.7016381 ], [ 12.1086003, 44.701638 ], [ 12.1086003, 44.7016379 ], [ 12.1086003, 44.7016379 ], [ 12.1086004, 44.7016378 ], [ 12.1086004, 44.7016377 ], [ 12.1086005, 44.7016376 ], [ 12.1086005, 44.7016376 ], [ 12.1086005, 44.7016375 ], [ 12.1086006, 44.7016374 ], [ 12.1086006, 44.7016374 ], [ 12.1086007, 44.7016373 ], [ 12.1086007, 44.7016372 ], [ 12.1086008, 44.7016372 ], [ 12.1086009, 44.7016371 ], [ 12.1086009, 44.701637 ], [ 12.108601, 44.701637 ], [ 12.108601, 44.7016369 ], [ 12.1086011, 44.7016368 ], [ 12.1086012, 44.7016368 ], [ 12.1086012, 44.7016367 ], [ 12.1086013, 44.7016367 ], [ 12.1086014, 44.7016366 ], [ 12.1086014, 44.7016365 ], [ 12.1086015, 44.7016365 ], [ 12.1086016, 44.7016364 ], [ 12.1086017, 44.7016364 ], [ 12.1086017, 44.7016363 ], [ 12.1086018, 44.7016363 ], [ 12.1086019, 44.7016362 ], [ 12.108602, 44.7016362 ], [ 12.108602, 44.7016361 ], [ 12.1086021, 44.7016361 ], [ 12.1086022, 44.701636 ], [ 12.1086023, 44.701636 ], [ 12.1086024, 44.7016359 ], [ 12.1086025, 44.7016359 ], [ 12.1086026, 44.7016358 ], [ 12.1086026, 44.7016358 ], [ 12.1086027, 44.7016357 ], [ 12.1086028, 44.7016357 ], [ 12.1086029, 44.7016357 ], [ 12.108603, 44.7016356 ], [ 12.1086031, 44.7016356 ], [ 12.1086032, 44.7016356 ], [ 12.1086033, 44.7016355 ], [ 12.1086034, 44.7016355 ], [ 12.1086035, 44.7016355 ], [ 12.1086036, 44.7016354 ], [ 12.1086037, 44.7016354 ], [ 12.1086038, 44.7016354 ], [ 12.1086039, 44.7016353 ], [ 12.108604, 44.7016353 ], [ 12.1086041, 44.7016353 ], [ 12.1086042, 44.7016353 ], [ 12.1086043, 44.7016352 ], [ 12.1086044, 44.7016352 ], [ 12.1086045, 44.7016352 ], [ 12.1086046, 44.7016352 ], [ 12.1086047, 44.7016352 ], [ 12.1086048, 44.7016351 ], [ 12.1086049, 44.7016351 ], [ 12.108605, 44.7016351 ], [ 12.1086051, 44.7016351 ], [ 12.1086052, 44.7016351 ], [ 12.1086053, 44.7016351 ], [ 12.1086054, 44.7016351 ], [ 12.1086055, 44.7016351 ], [ 12.1086057, 44.701635 ], [ 12.1086058, 44.701635 ], [ 12.1086059, 44.701635 ], [ 12.108606, 44.701635 ], [ 12.1086061, 44.701635 ], [ 12.1086062, 44.701635 ], [ 12.1086063, 44.701635 ], [ 12.1086064, 44.701635 ], [ 12.1086065, 44.701635 ], [ 12.1086066, 44.7016351 ], [ 12.1086067, 44.7016351 ], [ 12.1086068, 44.7016351 ], [ 12.1086073, 44.701635 ], [ 12.1086078, 44.701635 ], [ 12.1086082, 44.7016349 ], [ 12.1086087, 44.7016349 ], [ 12.1086092, 44.7016349 ], [ 12.1086096, 44.7016348 ], [ 12.1086101, 44.7016348 ], [ 12.1086106, 44.7016348 ], [ 12.108611, 44.7016348 ], [ 12.1086115, 44.7016348 ], [ 12.108612, 44.7016348 ], [ 12.1086124, 44.7016348 ], [ 12.1086129, 44.7016348 ], [ 12.1086134, 44.7016349 ], [ 12.1086138, 44.7016349 ], [ 12.1086143, 44.7016349 ], [ 12.1086148, 44.701635 ], [ 12.1086152, 44.701635 ], [ 12.1086157, 44.7016351 ], [ 12.1086161, 44.7016351 ], [ 12.1086166, 44.7016352 ], [ 12.1086171, 44.7016352 ], [ 12.1086175, 44.7016353 ], [ 12.108618, 44.7016354 ], [ 12.1086184, 44.7016355 ], [ 12.1086189, 44.7016356 ], [ 12.1086193, 44.7016357 ], [ 12.1086198, 44.7016358 ], [ 12.1086202, 44.7016359 ], [ 12.1086207, 44.701636 ], [ 12.1086211, 44.7016361 ], [ 12.1086215, 44.7016362 ], [ 12.108622, 44.7016364 ], [ 12.1086224, 44.7016365 ], [ 12.1086228, 44.7016366 ], [ 12.1086232, 44.7016368 ], [ 12.1086236, 44.7016369 ], [ 12.1086239, 44.7016371 ], [ 12.1086241, 44.7016372 ], [ 12.1086243, 44.7016373 ], [ 12.1086245, 44.7016374 ], [ 12.1086248, 44.7016375 ], [ 12.108625, 44.7016376 ], [ 12.1086252, 44.7016378 ], [ 12.1086254, 44.7016379 ], [ 12.1086256, 44.701638 ], [ 12.1086258, 44.7016382 ], [ 12.108626, 44.7016383 ], [ 12.1086262, 44.7016384 ], [ 12.1086264, 44.7016386 ], [ 12.1086265, 44.7016387 ], [ 12.1086267, 44.7016388 ], [ 12.1086269, 44.701639 ], [ 12.1086271, 44.7016391 ], [ 12.1086273, 44.7016393 ], [ 12.1086274, 44.7016394 ], [ 12.1086276, 44.7016396 ], [ 12.1086277, 44.7016398 ], [ 12.1086279, 44.7016399 ], [ 12.1086281, 44.7016401 ], [ 12.1086282, 44.7016402 ], [ 12.1086284, 44.7016404 ], [ 12.1086285, 44.7016406 ], [ 12.1086286, 44.7016407 ], [ 12.1086288, 44.7016409 ], [ 12.1086289, 44.7016411 ], [ 12.108629, 44.7016412 ], [ 12.1086291, 44.7016414 ], [ 12.1086293, 44.7016416 ], [ 12.1086294, 44.7016418 ], [ 12.1086295, 44.701642 ], [ 12.1086296, 44.7016421 ], [ 12.1086297, 44.7016423 ], [ 12.1086298, 44.7016425 ], [ 12.1086299, 44.7016427 ], [ 12.1086299, 44.7016429 ], [ 12.10863, 44.701643 ], [ 12.1086301, 44.7016432 ], [ 12.1086302, 44.7016434 ], [ 12.1086302, 44.7016436 ], [ 12.1086303, 44.7016438 ], [ 12.1086304, 44.701644 ], [ 12.1086304, 44.7016442 ], [ 12.1086305, 44.7016444 ], [ 12.1086305, 44.7016446 ], [ 12.1086305, 44.7016448 ], [ 12.1086306, 44.7016449 ], [ 12.1086306, 44.7016451 ], [ 12.1086306, 44.7016453 ], [ 12.1086307, 44.7016455 ], [ 12.1086307, 44.7016457 ], [ 12.1086307, 44.7016459 ], [ 12.1086307, 44.7016461 ], [ 12.1086307, 44.7016462 ], [ 12.1086308, 44.7016463 ], [ 12.1086308, 44.7016465 ], [ 12.1086309, 44.7016466 ], [ 12.1086309, 44.7016467 ], [ 12.108631, 44.7016468 ], [ 12.108631, 44.7016469 ], [ 12.108631, 44.701647 ], [ 12.1086311, 44.7016472 ], [ 12.1086311, 44.7016473 ], [ 12.1086311, 44.7016474 ], [ 12.1086311, 44.7016475 ], [ 12.1086312, 44.7016476 ], [ 12.1086312, 44.7016478 ], [ 12.1086312, 44.7016479 ], [ 12.1086312, 44.701648 ], [ 12.1086312, 44.7016481 ], [ 12.1086312, 44.7016482 ], [ 12.1086312, 44.7016484 ], [ 12.1086312, 44.7016485 ], [ 12.1086312, 44.7016486 ], [ 12.1086312, 44.7016487 ], [ 12.1086312, 44.7016488 ], [ 12.1086312, 44.701649 ], [ 12.1086312, 44.7016491 ], [ 12.1086311, 44.7016492 ], [ 12.1086311, 44.7016493 ], [ 12.1086311, 44.7016494 ], [ 12.1086311, 44.7016496 ], [ 12.108631, 44.7016497 ], [ 12.108631, 44.7016498 ], [ 12.108631, 44.7016499 ], [ 12.1086309, 44.70165 ], [ 12.1086309, 44.7016501 ], [ 12.1086308, 44.7016503 ], [ 12.1086308, 44.7016504 ], [ 12.1086307, 44.7016505 ], [ 12.1086307, 44.7016506 ], [ 12.1086306, 44.7016507 ], [ 12.1086306, 44.7016508 ], [ 12.1086305, 44.7016509 ], [ 12.1086304, 44.7016511 ], [ 12.1086304, 44.7016512 ], [ 12.1086303, 44.7016513 ], [ 12.1086302, 44.7016514 ], [ 12.1086302, 44.7016515 ], [ 12.1086301, 44.7016516 ], [ 12.10863, 44.7016517 ], [ 12.1086299, 44.7016518 ], [ 12.1086298, 44.7016519 ], [ 12.1086297, 44.701652 ], [ 12.1086296, 44.7016521 ], [ 12.1086296, 44.7016522 ], [ 12.1086295, 44.7016523 ], [ 12.1086294, 44.7016524 ], [ 12.1086293, 44.7016525 ], [ 12.1086292, 44.7016526 ], [ 12.1086291, 44.7016527 ], [ 12.1086289, 44.7016528 ], [ 12.1086288, 44.7016529 ], [ 12.1086287, 44.701653 ], [ 12.1086286, 44.7016531 ], [ 12.1086285, 44.7016532 ], [ 12.1086284, 44.7016532 ], [ 12.1086283, 44.7016533 ], [ 12.1086281, 44.7016534 ], [ 12.108628, 44.7016535 ], [ 12.1086279, 44.7016536 ], [ 12.1086278, 44.7016537 ], [ 12.1086276, 44.7016537 ], [ 12.1086275, 44.7016538 ], [ 12.1086274, 44.7016539 ], [ 12.1086272, 44.701654 ], [ 12.1086271, 44.701654 ], [ 12.1086269, 44.7016541 ], [ 12.1086268, 44.7016542 ], [ 12.1086267, 44.7016542 ], [ 12.1086265, 44.7016543 ], [ 12.1086264, 44.7016543 ], [ 12.1086262, 44.7016544 ], [ 12.1086256, 44.7016545 ], [ 12.108625, 44.7016547 ], [ 12.1086244, 44.7016548 ], [ 12.1086239, 44.7016549 ], [ 12.1086233, 44.701655 ], [ 12.1086226, 44.7016551 ], [ 12.108622, 44.7016552 ], [ 12.1086214, 44.7016553 ], [ 12.1086208, 44.7016554 ], [ 12.1086202, 44.7016555 ], [ 12.1086196, 44.7016556 ], [ 12.108619, 44.7016556 ], [ 12.1086184, 44.7016557 ], [ 12.1086177, 44.7016557 ], [ 12.1086171, 44.7016558 ], [ 12.1086165, 44.7016558 ], [ 12.1086159, 44.7016558 ], [ 12.1086153, 44.7016558 ], [ 12.1086146, 44.7016558 ], [ 12.108614, 44.7016558 ], [ 12.1086134, 44.7016558 ], [ 12.1086128, 44.7016558 ], [ 12.1086122, 44.7016558 ], [ 12.1086115, 44.7016557 ] ] ] } },
{ "type": "Feature", "properties": { "id": 1 }, "bbox": [ 12.1099416, 44.700646, 12.1099727, 44.700667 ], "geometry": { "type": "Polygon", "coordinates": [ [ [ 12.1099531, 44.7006669 ], [ 12.1099477, 44.7006654 ], [ 12.1099477, 44.7006654 ], [ 12.1099449, 44.7006613 ], [ 12.1099416, 44.7006494 ], [ 12.1099417, 44.7006494 ], [ 12.1099417, 44.7006493 ], [ 12.1099417, 44.7006492 ], [ 12.1099418, 44.7006491 ], [ 12.1099418, 44.7006491 ], [ 12.1099418, 44.700649 ], [ 12.1099419, 44.7006489 ], [ 12.1099419, 44.7006489 ], [ 12.109942, 44.7006488 ], [ 12.109942, 44.7006487 ], [ 12.1099421, 44.7006486 ], [ 12.1099421, 44.7006486 ], [ 12.1099422, 44.7006485 ], [ 12.1099422, 44.7006484 ], [ 12.1099423, 44.7006484 ], [ 12.1099423, 44.7006483 ], [ 12.1099424, 44.7006482 ], [ 12.1099424, 44.7006482 ], [ 12.1099425, 44.7006481 ], [ 12.1099426, 44.7006481 ], [ 12.1099426, 44.700648 ], [ 12.1099427, 44.7006479 ], [ 12.1099427, 44.7006479 ], [ 12.1099428, 44.7006478 ], [ 12.1099429, 44.7006478 ], [ 12.109943, 44.7006477 ], [ 12.109943, 44.7006476 ], [ 12.1099431, 44.7006476 ], [ 12.1099432, 44.7006475 ], [ 12.1099432, 44.7006475 ], [ 12.1099433, 44.7006474 ], [ 12.1099434, 44.7006474 ], [ 12.1099435, 44.7006473 ], [ 12.1099436, 44.7006473 ], [ 12.1099436, 44.7006472 ], [ 12.1099437, 44.7006472 ], [ 12.1099438, 44.7006471 ], [ 12.1099439, 44.7006471 ], [ 12.109944, 44.700647 ], [ 12.1099441, 44.700647 ], [ 12.1099442, 44.7006469 ], [ 12.1099443, 44.7006469 ], [ 12.1099443, 44.7006469 ], [ 12.1099444, 44.7006468 ], [ 12.1099445, 44.7006468 ], [ 12.1099446, 44.7006467 ], [ 12.1099447, 44.7006467 ], [ 12.1099448, 44.7006467 ], [ 12.1099449, 44.7006466 ], [ 12.109945, 44.7006466 ], [ 12.1099451, 44.7006466 ], [ 12.1099452, 44.7006465 ], [ 12.1099453, 44.7006465 ], [ 12.1099454, 44.7006465 ], [ 12.1099455, 44.7006465 ], [ 12.1099456, 44.7006464 ], [ 12.1099457, 44.7006464 ], [ 12.1099458, 44.7006464 ], [ 12.1099459, 44.7006464 ], [ 12.109946, 44.7006463 ], [ 12.1099461, 44.7006463 ], [ 12.1099462, 44.7006463 ], [ 12.1099463, 44.7006463 ], [ 12.1099464, 44.7006463 ], [ 12.1099465, 44.7006463 ], [ 12.1099466, 44.7006462 ], [ 12.1099467, 44.7006462 ], [ 12.1099469, 44.7006462 ], [ 12.109947, 44.7006462 ], [ 12.1099471, 44.7006462 ], [ 12.1099472, 44.7006462 ], [ 12.1099473, 44.7006462 ], [ 12.1099474, 44.7006462 ], [ 12.1099475, 44.7006462 ], [ 12.1099476, 44.7006462 ], [ 12.1099477, 44.7006462 ], [ 12.1099478, 44.7006462 ], [ 12.1099479, 44.7006462 ], [ 12.109948, 44.7006462 ], [ 12.1099481, 44.7006462 ], [ 12.1099482, 44.7006462 ], [ 12.1099484, 44.7006462 ], [ 12.1099488, 44.7006462 ], [ 12.1099493, 44.7006461 ], [ 12.1099497, 44.7006461 ], [ 12.1099502, 44.700646 ], [ 12.1099507, 44.700646 ], [ 12.1099511, 44.700646 ], [ 12.1099516, 44.700646 ], [ 12.1099521, 44.700646 ], [ 12.1099525, 44.700646 ], [ 12.109953, 44.700646 ], [ 12.1099535, 44.700646 ], [ 12.1099539, 44.700646 ], [ 12.1099544, 44.700646 ], [ 12.1099549, 44.700646 ], [ 12.1099553, 44.700646 ], [ 12.1099558, 44.7006461 ], [ 12.1099563, 44.7006461 ], [ 12.1099567, 44.7006462 ], [ 12.1099572, 44.7006462 ], [ 12.1099577, 44.7006463 ], [ 12.1099581, 44.7006463 ], [ 12.1099586, 44.7006464 ], [ 12.109959, 44.7006465 ], [ 12.1099595, 44.7006466 ], [ 12.1099599, 44.7006466 ], [ 12.1099604, 44.7006467 ], [ 12.1099608, 44.7006468 ], [ 12.1099613, 44.7006469 ], [ 12.1099617, 44.700647 ], [ 12.1099622, 44.7006471 ], [ 12.1099626, 44.7006473 ], [ 12.109963, 44.7006474 ], [ 12.1099635, 44.7006475 ], [ 12.1099639, 44.7006477 ], [ 12.1099643, 44.7006478 ], [ 12.1099648, 44.7006479 ], [ 12.1099652, 44.7006481 ], [ 12.1099654, 44.7006482 ], [ 12.1099656, 44.7006483 ], [ 12.1099658, 44.7006484 ], [ 12.1099661, 44.7006485 ], [ 12.1099663, 44.7006487 ], [ 12.1099665, 44.7006488 ], [ 12.1099667, 44.7006489 ], [ 12.1099669, 44.700649 ], [ 12.1099671, 44.7006492 ], [ 12.1099673, 44.7006493 ], [ 12.1099675, 44.7006494 ], [ 12.1099677, 44.7006496 ], [ 12.1099679, 44.7006497 ], [ 12.1099681, 44.7006499 ], [ 12.1099682, 44.70065 ], [ 12.1099684, 44.7006501 ], [ 12.1099686, 44.7006503 ], [ 12.1099688, 44.7006504 ], [ 12.1099689, 44.7006506 ], [ 12.1099691, 44.7006507 ], [ 12.1099693, 44.7006509 ], [ 12.1099694, 44.7006511 ], [ 12.1099696, 44.7006512 ], [ 12.1099697, 44.7006514 ], [ 12.1099699, 44.7006515 ], [ 12.10997, 44.7006517 ], [ 12.1099701, 44.7006519 ], [ 12.1099703, 44.7006521 ], [ 12.1099704, 44.7006522 ], [ 12.1099705, 44.7006524 ], [ 12.1099707, 44.7006526 ], [ 12.1099708, 44.7006527 ], [ 12.1099709, 44.7006529 ], [ 12.109971, 44.7006531 ], [ 12.1099711, 44.7006533 ], [ 12.1099712, 44.7006535 ], [ 12.1099713, 44.7006536 ], [ 12.1099714, 44.7006538 ], [ 12.1099715, 44.700654 ], [ 12.1099715, 44.7006542 ], [ 12.1099716, 44.7006544 ], [ 12.1099717, 44.7006546 ], [ 12.1099718, 44.7006548 ], [ 12.1099718, 44.7006549 ], [ 12.1099719, 44.7006551 ], [ 12.1099719, 44.7006553 ], [ 12.109972, 44.7006555 ], [ 12.109972, 44.7006557 ], [ 12.1099721, 44.7006559 ], [ 12.1099721, 44.7006561 ], [ 12.1099721, 44.7006563 ], [ 12.1099722, 44.7006565 ], [ 12.1099722, 44.7006567 ], [ 12.1099722, 44.7006569 ], [ 12.1099722, 44.7006571 ], [ 12.1099722, 44.7006573 ], [ 12.1099723, 44.7006574 ], [ 12.1099723, 44.7006575 ], [ 12.1099724, 44.7006576 ], [ 12.1099724, 44.7006577 ], [ 12.1099725, 44.7006578 ], [ 12.1099725, 44.7006579 ], [ 12.1099725, 44.7006581 ], [ 12.1099726, 44.7006582 ], [ 12.1099726, 44.7006583 ], [ 12.1099726, 44.7006584 ], [ 12.1099726, 44.7006585 ], [ 12.1099727, 44.7006587 ], [ 12.1099727, 44.7006588 ], [ 12.1099727, 44.7006589 ], [ 12.1099727, 44.700659 ], [ 12.1099727, 44.7006591 ], [ 12.1099727, 44.7006593 ], [ 12.1099727, 44.7006594 ], [ 12.1099727, 44.7006595 ], [ 12.1099727, 44.7006596 ], [ 12.1099727, 44.7006597 ], [ 12.1099727, 44.7006599 ], [ 12.1099727, 44.70066 ], [ 12.1099727, 44.7006601 ], [ 12.1099727, 44.7006602 ], [ 12.1099727, 44.7006603 ], [ 12.1099726, 44.7006605 ], [ 12.1099726, 44.7006606 ], [ 12.1099726, 44.7006607 ], [ 12.1099726, 44.7006608 ], [ 12.1099725, 44.7006609 ], [ 12.1099725, 44.7006611 ], [ 12.1099724, 44.7006612 ], [ 12.1099724, 44.7006613 ], [ 12.1099724, 44.7006614 ], [ 12.1099723, 44.7006615 ], [ 12.1099723, 44.7006616 ], [ 12.1099722, 44.7006618 ], [ 12.1099721, 44.7006619 ], [ 12.1099721, 44.700662 ], [ 12.109972, 44.7006621 ], [ 12.109972, 44.7006622 ], [ 12.1099719, 44.7006623 ], [ 12.1099718, 44.7006624 ], [ 12.1099717, 44.7006625 ], [ 12.1099717, 44.7006626 ], [ 12.1099716, 44.7006627 ], [ 12.1099715, 44.7006629 ], [ 12.1099714, 44.700663 ], [ 12.1099713, 44.7006631 ], [ 12.1099713, 44.7006632 ], [ 12.1099712, 44.7006633 ], [ 12.1099711, 44.7006634 ], [ 12.109971, 44.7006635 ], [ 12.1099709, 44.7006636 ], [ 12.1099708, 44.7006637 ], [ 12.1099707, 44.7006638 ], [ 12.1099706, 44.7006639 ], [ 12.1099705, 44.7006639 ], [ 12.1099704, 44.700664 ], [ 12.1099702, 44.7006641 ], [ 12.1099701, 44.7006642 ], [ 12.10997, 44.7006643 ], [ 12.1099699, 44.7006644 ], [ 12.1099698, 44.7006645 ], [ 12.1099697, 44.7006646 ], [ 12.1099695, 44.7006646 ], [ 12.1099694, 44.7006647 ], [ 12.1099693, 44.7006648 ], [ 12.1099691, 44.7006649 ], [ 12.109969, 44.700665 ], [ 12.1099689, 44.700665 ], [ 12.1099687, 44.7006651 ], [ 12.1099686, 44.7006652 ], [ 12.1099685, 44.7006652 ], [ 12.1099683, 44.7006653 ], [ 12.1099682, 44.7006654 ], [ 12.109968, 44.7006654 ], [ 12.1099679, 44.7006655 ], [ 12.1099677, 44.7006656 ], [ 12.1099672, 44.7006657 ], [ 12.1099666, 44.7006658 ], [ 12.109966, 44.700666 ], [ 12.1099654, 44.7006661 ], [ 12.1099648, 44.7006662 ], [ 12.1099642, 44.7006663 ], [ 12.1099636, 44.7006664 ], [ 12.109963, 44.7006665 ], [ 12.1099623, 44.7006666 ], [ 12.1099617, 44.7006666 ], [ 12.1099611, 44.7006667 ], [ 12.1099605, 44.7006668 ], [ 12.1099599, 44.7006668 ], [ 12.1099593, 44.7006669 ], [ 12.1099586, 44.7006669 ], [ 12.109958, 44.7006669 ], [ 12.1099574, 44.700667 ], [ 12.1099568, 44.700667 ], [ 12.1099562, 44.700667 ], [ 12.1099555, 44.700667 ], [ 12.1099549, 44.700667 ], [ 12.1099543, 44.7006669 ], [ 12.1099537, 44.7006669 ], [ 12.1099531, 44.7006669 ] ] ] } },
{ "type": "Feature", "properties": { "id": 1 }, "bbox": [ 12.1128768, 44.7037297, 12.1129079, 44.7037507 ], "geometry": { "type": "Polygon", "coordinates": [ [ [ 12.1128882, 44.7037507 ], [ 12.1128829, 44.7037492 ], [ 12.1128829, 44.7037492 ], [ 12.1128801, 44.703745 ], [ 12.1128768, 44.7037332 ], [ 12.1128768, 44.7037331 ], [ 12.1128769, 44.7037331 ], [ 12.1128769, 44.703733 ], [ 12.1128769, 44.7037329 ], [ 12.112877, 44.7037328 ], [ 12.112877, 44.7037328 ], [ 12.112877, 44.7037327 ], [ 12.1128771, 44.7037326 ], [ 12.1128771, 44.7037326 ], [ 12.1128772, 44.7037325 ], [ 12.1128772, 44.7037324 ], [ 12.1128773, 44.7037324 ], [ 12.1128773, 44.7037323 ], [ 12.1128774, 44.7037322 ], [ 12.1128774, 44.7037321 ], [ 12.1128775, 44.7037321 ], [ 12.1128775, 44.703732 ], [ 12.1128776, 44.703732 ], [ 12.1128776, 44.7037319 ], [ 12.1128777, 44.7037318 ], [ 12.1128778, 44.7037318 ], [ 12.1128778, 44.7037317 ], [ 12.1128779, 44.7037316 ], [ 12.112878, 44.7037316 ], [ 12.112878, 44.7037315 ], [ 12.1128781, 44.7037315 ], [ 12.1128782, 44.7037314 ], [ 12.1128783, 44.7037314 ], [ 12.1128783, 44.7037313 ], [ 12.1128784, 44.7037312 ], [ 12.1128785, 44.7037312 ], [ 12.1128786, 44.7037311 ], [ 12.1128786, 44.7037311 ], [ 12.1128787, 44.703731 ], [ 12.1128788, 44.703731 ], [ 12.1128789, 44.7037309 ], [ 12.112879, 44.7037309 ], [ 12.1128791, 44.7037308 ], [ 12.1128791, 44.7037308 ], [ 12.1128792, 44.7037308 ], [ 12.1128793, 44.7037307 ], [ 12.1128794, 44.7037307 ], [ 12.1128795, 44.7037306 ], [ 12.1128796, 44.7037306 ], [ 12.1128797, 44.7037305 ], [ 12.1128798, 44.7037305 ], [ 12.1128799, 44.7037305 ], [ 12.11288, 44.7037304 ], [ 12.1128801, 44.7037304 ], [ 12.1128802, 44.7037304 ], [ 12.1128803, 44.7037303 ], [ 12.1128804, 44.7037303 ], [ 12.1128804, 44.7037303 ], [ 12.1128805, 44.7037302 ], [ 12.1128807, 44.7037302 ], [ 12.1128808, 44.7037302 ], [ 12.1128809, 44.7037302 ], [ 12.112881, 44.7037301 ], [ 12.1128811, 44.7037301 ], [ 12.1128812, 44.7037301 ], [ 12.1128813, 44.7037301 ], [ 12.1128814, 44.7037301 ], [ 12.1128815, 44.7037301 ], [ 12.1128816, 44.70373 ], [ 12.1128817, 44.70373 ], [ 12.1128818, 44.70373 ], [ 12.1128819, 44.70373 ], [ 12.112882, 44.70373 ], [ 12.1128821, 44.70373 ], [ 12.1128822, 44.70373 ], [ 12.1128823, 44.70373 ], [ 12.1128824, 44.70373 ], [ 12.1128825, 44.70373 ], [ 12.1128826, 44.70373 ], [ 12.1128828, 44.70373 ], [ 12.1128829, 44.70373 ], [ 12.112883, 44.70373 ], [ 12.1128831, 44.70373 ], [ 12.1128832, 44.70373 ], [ 12.1128833, 44.70373 ], [ 12.1128834, 44.70373 ], [ 12.1128835, 44.70373 ], [ 12.112884, 44.7037299 ], [ 12.1128844, 44.7037299 ], [ 12.1128849, 44.7037298 ], [ 12.1128854, 44.7037298 ], [ 12.1128858, 44.7037298 ], [ 12.1128863, 44.7037298 ], [ 12.1128868, 44.7037297 ], [ 12.1128872, 44.7037297 ], [ 12.1128877, 44.7037297 ], [ 12.1128882, 44.7037297 ], [ 12.1128886, 44.7037297 ], [ 12.1128891, 44.7037297 ], [ 12.1128896, 44.7037298 ], [ 12.11289, 44.7037298 ], [ 12.1128905, 44.7037298 ], [ 12.112891, 44.7037298 ], [ 12.1128914, 44.7037299 ], [ 12.1128919, 44.7037299 ], [ 12.1128924, 44.70373 ], [ 12.1128928, 44.70373 ], [ 12.1128933, 44.7037301 ], [ 12.1128937, 44.7037302 ], [ 12.1128942, 44.7037302 ], [ 12.1128946, 44.7037303 ], [ 12.1128951, 44.7037304 ], [ 12.1128956, 44.7037305 ], [ 12.112896, 44.7037306 ], [ 12.1128964, 44.7037307 ], [ 12.1128969, 44.7037308 ], [ 12.1128973, 44.7037309 ], [ 12.1128978, 44.703731 ], [ 12.1128982, 44.7037312 ], [ 12.1128986, 44.7037313 ], [ 12.1128991, 44.7037314 ], [ 12.1128995, 44.7037316 ], [ 12.1128999, 44.7037317 ], [ 12.1129003, 44.7037319 ], [ 12.1129005, 44.703732 ], [ 12.1129008, 44.7037321 ], [ 12.112901, 44.7037322 ], [ 12.1129012, 44.7037323 ], [ 12.1129014, 44.7037324 ], [ 12.1129016, 44.7037326 ], [ 12.1129018, 44.7037327 ], [ 12.1129021, 44.7037328 ], [ 12.1129023, 44.7037329 ], [ 12.1129025, 44.7037331 ], [ 12.1129026, 44.7037332 ], [ 12.1129028, 44.7037333 ], [ 12.112903, 44.7037335 ], [ 12.1129032, 44.7037336 ], [ 12.1129034, 44.7037338 ], [ 12.1129036, 44.7037339 ], [ 12.1129038, 44.7037341 ], [ 12.1129039, 44.7037342 ], [ 12.1129041, 44.7037344 ], [ 12.1129043, 44.7037345 ], [ 12.1129044, 44.7037347 ], [ 12.1129046, 44.7037348 ], [ 12.1129047, 44.703735 ], [ 12.1129049, 44.7037352 ], [ 12.112905, 44.7037353 ], [ 12.1129052, 44.7037355 ], [ 12.1129053, 44.7037356 ], [ 12.1129054, 44.7037358 ], [ 12.1129056, 44.703736 ], [ 12.1129057, 44.7037362 ], [ 12.1129058, 44.7037363 ], [ 12.1129059, 44.7037365 ], [ 12.112906, 44.7037367 ], [ 12.1129061, 44.7037369 ], [ 12.1129062, 44.703737 ], [ 12.1129063, 44.7037372 ], [ 12.1129064, 44.7037374 ], [ 12.1129065, 44.7037376 ], [ 12.1129066, 44.7037378 ], [ 12.1129067, 44.703738 ], [ 12.1129068, 44.7037381 ], [ 12.1129068, 44.7037383 ], [ 12.1129069, 44.7037385 ], [ 12.112907, 44.7037387 ], [ 12.112907, 44.7037389 ], [ 12.1129071, 44.7037391 ], [ 12.1129071, 44.7037393 ], [ 12.1129072, 44.7037395 ], [ 12.1129072, 44.7037397 ], [ 12.1129073, 44.7037399 ], [ 12.1129073, 44.7037401 ], [ 12.1129073, 44.7037402 ], [ 12.1129073, 44.7037404 ], [ 12.1129074, 44.7037406 ], [ 12.1129074, 44.7037408 ], [ 12.1129074, 44.703741 ], [ 12.1129074, 44.7037411 ], [ 12.1129075, 44.7037412 ], [ 12.1129075, 44.7037414 ], [ 12.1129076, 44.7037415 ], [ 12.1129076, 44.7037416 ], [ 12.1129076, 44.7037417 ], [ 12.1129077, 44.7037418 ], [ 12.1129077, 44.703742 ], [ 12.1129077, 44.7037421 ], [ 12.1129078, 44.7037422 ], [ 12.1129078, 44.7037423 ], [ 12.1129078, 44.7037424 ], [ 12.1129078, 44.7037425 ], [ 12.1129079, 44.7037427 ], [ 12.1129079, 44.7037428 ], [ 12.1129079, 44.7037429 ], [ 12.1129079, 44.703743 ], [ 12.1129079, 44.7037432 ], [ 12.1129079, 44.7037433 ], [ 12.1129079, 44.7037434 ], [ 12.1129079, 44.7037435 ], [ 12.1129079, 44.7037436 ], [ 12.1129079, 44.7037438 ], [ 12.1129079, 44.7037439 ], [ 12.1129078, 44.703744 ], [ 12.1129078, 44.7037441 ], [ 12.1129078, 44.7037442 ], [ 12.1129078, 44.7037444 ], [ 12.1129077, 44.7037445 ], [ 12.1129077, 44.7037446 ], [ 12.1129077, 44.7037447 ], [ 12.1129076, 44.7037448 ], [ 12.1129076, 44.7037449 ], [ 12.1129076, 44.7037451 ], [ 12.1129075, 44.7037452 ], [ 12.1129075, 44.7037453 ], [ 12.1129074, 44.7037454 ], [ 12.1129074, 44.7037455 ], [ 12.1129073, 44.7037456 ], [ 12.1129072, 44.7037457 ], [ 12.1129072, 44.7037459 ], [ 12.1129071, 44.703746 ], [ 12.112907, 44.7037461 ], [ 12.112907, 44.7037462 ], [ 12.1129069, 44.7037463 ], [ 12.1129068, 44.7037464 ], [ 12.1129068, 44.7037465 ], [ 12.1129067, 44.7037466 ], [ 12.1129066, 44.7037467 ], [ 12.1129065, 44.7037468 ], [ 12.1129064, 44.7037469 ], [ 12.1129063, 44.703747 ], [ 12.1129062, 44.7037471 ], [ 12.1129061, 44.7037472 ], [ 12.112906, 44.7037473 ], [ 12.1129059, 44.7037474 ], [ 12.1129058, 44.7037475 ], [ 12.1129057, 44.7037476 ], [ 12.1129056, 44.7037477 ], [ 12.1129055, 44.7037478 ], [ 12.1129054, 44.7037479 ], [ 12.1129053, 44.703748 ], [ 12.1129052, 44.7037481 ], [ 12.112905, 44.7037482 ], [ 12.1129049, 44.7037482 ], [ 12.1129048, 44.7037483 ], [ 12.1129047, 44.7037484 ], [ 12.1129046, 44.7037485 ], [ 12.1129044, 44.7037486 ], [ 12.1129043, 44.7037486 ], [ 12.1129042, 44.7037487 ], [ 12.112904, 44.7037488 ], [ 12.1129039, 44.7037489 ], [ 12.1129038, 44.7037489 ], [ 12.1129036, 44.703749 ], [ 12.1129035, 44.7037491 ], [ 12.1129033, 44.7037491 ], [ 12.1129032, 44.7037492 ], [ 12.112903, 44.7037493 ], [ 12.1129029, 44.7037493 ], [ 12.1129023, 44.7037495 ], [ 12.1129017, 44.7037496 ], [ 12.1129011, 44.7037497 ], [ 12.1129005, 44.7037498 ], [ 12.1128999, 44.70375 ], [ 12.1128993, 44.7037501 ], [ 12.1128987, 44.7037502 ], [ 12.1128981, 44.7037503 ], [ 12.1128975, 44.7037503 ], [ 12.1128969, 44.7037504 ], [ 12.1128963, 44.7037505 ], [ 12.1128957, 44.7037505 ], [ 12.112895, 44.7037506 ], [ 12.1128944, 44.7037506 ], [ 12.1128938, 44.7037507 ], [ 12.1128932, 44.7037507 ], [ 12.1128926, 44.7037507 ], [ 12.1128919, 44.7037507 ], [ 12.1128913, 44.7037507 ], [ 12.1128907, 44.7037507 ], [ 12.1128901, 44.7037507 ], [ 12.1128895, 44.7037507 ], [ 12.1128888, 44.7037507 ], [ 12.1128882, 44.7037507 ] ] ] } },
{ "type": "Feature", "properties": { "id": 1 }, "bbox": [ 12.1129279, 44.7036743, 12.112959, 44.7036953 ], "geometry": { "type": "Polygon", "coordinates": [ [ [ 12.1129393, 44.7036953 ], [ 12.112934, 44.7036938 ], [ 12.112934, 44.7036938 ], [ 12.1129312, 44.7036896 ], [ 12.1129279, 44.7036778 ], [ 12.1129279, 44.7036777 ], [ 12.112928, 44.7036777 ], [ 12.112928, 44.7036776 ], [ 12.112928, 44.7036775 ], [ 12.1129281, 44.7036774 ], [ 12.1129281, 44.7036774 ], [ 12.1129282, 44.7036773 ], [ 12.1129282, 44.7036772 ], [ 12.1129282, 44.7036772 ], [ 12.1129283, 44.7036771 ], [ 12.1129283, 44.703677 ], [ 12.1129284, 44.703677 ], [ 12.1129284, 44.7036769 ], [ 12.1129285, 44.7036768 ], [ 12.1129285, 44.7036768 ], [ 12.1129286, 44.7036767 ], [ 12.1129286, 44.7036766 ], [ 12.1129287, 44.7036766 ], [ 12.1129288, 44.7036765 ], [ 12.1129288, 44.7036764 ], [ 12.1129289, 44.7036764 ], [ 12.1129289, 44.7036763 ], [ 12.112929, 44.7036762 ], [ 12.1129291, 44.7036762 ], [ 12.1129291, 44.7036761 ], [ 12.1129292, 44.7036761 ], [ 12.1129293, 44.703676 ], [ 12.1129294, 44.703676 ], [ 12.1129294, 44.7036759 ], [ 12.1129295, 44.7036758 ], [ 12.1129296, 44.7036758 ], [ 12.1129297, 44.7036757 ], [ 12.1129297, 44.7036757 ], [ 12.1129298, 44.7036756 ], [ 12.1129299, 44.7036756 ], [ 12.11293, 44.7036755 ], [ 12.1129301, 44.7036755 ], [ 12.1129302, 44.7036754 ], [ 12.1129302, 44.7036754 ], [ 12.1129303, 44.7036754 ], [ 12.1129304, 44.7036753 ], [ 12.1129305, 44.7036753 ], [ 12.1129306, 44.7036752 ], [ 12.1129307, 44.7036752 ], [ 12.1129308, 44.7036752 ], [ 12.1129309, 44.7036751 ], [ 12.112931, 44.7036751 ], [ 12.1129311, 44.703675 ], [ 12.1129312, 44.703675 ], [ 12.1129313, 44.703675 ], [ 12.1129314, 44.7036749 ], [ 12.1129315, 44.7036749 ], [ 12.1129316, 44.7036749 ], [ 12.1129317, 44.7036749 ], [ 12.1129318, 44.7036748 ], [ 12.1129319, 44.7036748 ], [ 12.112932, 44.7036748 ], [ 12.1129321, 44.7036748 ], [ 12.1129322, 44.7036747 ], [ 12.1129323, 44.7036747 ], [ 12.1129324, 44.7036747 ], [ 12.1129325, 44.7036747 ], [ 12.1129326, 44.7036747 ], [ 12.1129327, 44.7036746 ], [ 12.1129328, 44.7036746 ], [ 12.1129329, 44.7036746 ], [ 12.112933, 44.7036746 ], [ 12.1129331, 44.7036746 ], [ 12.1129332, 44.7036746 ], [ 12.1129333, 44.7036746 ], [ 12.1129334, 44.7036746 ], [ 12.1129335, 44.7036746 ], [ 12.1129337, 44.7036746 ], [ 12.1129338, 44.7036746 ], [ 12.1129339, 44.7036746 ], [ 12.112934, 44.7036746 ], [ 12.1129341, 44.7036746 ], [ 12.1129342, 44.7036746 ], [ 12.1129343, 44.7036746 ], [ 12.1129344, 44.7036746 ], [ 12.1129345, 44.7036746 ], [ 12.1129346, 44.7036746 ], [ 12.1129351, 44.7036745 ], [ 12.1129355, 44.7036745 ], [ 12.112936, 44.7036744 ], [ 12.1129365, 44.7036744 ], [ 12.1129369, 44.7036744 ], [ 12.1129374, 44.7036744 ], [ 12.1129379, 44.7036743 ], [ 12.1129383, 44.7036743 ], [ 12.1129388, 44.7036743 ], [ 12.1129393, 44.7036743 ], [ 12.1129397, 44.7036743 ], [ 12.1129402, 44.7036743 ], [ 12.1129407, 44.7036744 ], [ 12.1129411, 44.7036744 ], [ 12.1129416, 44.7036744 ], [ 12.1129421, 44.7036744 ], [ 12.1129425, 44.7036745 ], [ 12.112943, 44.7036745 ], [ 12.1129435, 44.7036746 ], [ 12.1129439, 44.7036746 ], [ 12.1129444, 44.7036747 ], [ 12.1129448, 44.7036748 ], [ 12.1129453, 44.7036748 ], [ 12.1129458, 44.7036749 ], [ 12.1129462, 44.703675 ], [ 12.1129467, 44.7036751 ], [ 12.1129471, 44.7036752 ], [ 12.1129476, 44.7036753 ], [ 12.112948, 44.7036754 ], [ 12.1129484, 44.7036755 ], [ 12.1129489, 44.7036756 ], [ 12.1129493, 44.7036758 ], [ 12.1129497, 44.7036759 ], [ 12.1129502, 44.703676 ], [ 12.1129506, 44.7036762 ], [ 12.112951, 44.7036763 ], [ 12.1129514, 44.7036765 ], [ 12.1129517, 44.7036766 ], [ 12.1129519, 44.7036767 ], [ 12.1129521, 44.7036768 ], [ 12.1129523, 44.7036769 ], [ 12.1129525, 44.703677 ], [ 12.1129527, 44.7036772 ], [ 12.112953, 44.7036773 ], [ 12.1129532, 44.7036774 ], [ 12.1129534, 44.7036775 ], [ 12.1129536, 44.7036777 ], [ 12.1129538, 44.7036778 ], [ 12.112954, 44.7036779 ], [ 12.1129541, 44.7036781 ], [ 12.1129543, 44.7036782 ], [ 12.1129545, 44.7036784 ], [ 12.1129547, 44.7036785 ], [ 12.1129549, 44.7036787 ], [ 12.112955, 44.7036788 ], [ 12.1129552, 44.703679 ], [ 12.1129554, 44.7036791 ], [ 12.1129555, 44.7036793 ], [ 12.1129557, 44.7036794 ], [ 12.1129558, 44.7036796 ], [ 12.112956, 44.7036798 ], [ 12.1129561, 44.7036799 ], [ 12.1129563, 44.7036801 ], [ 12.1129564, 44.7036803 ], [ 12.1129565, 44.7036804 ], [ 12.1129567, 44.7036806 ], [ 12.1129568, 44.7036808 ], [ 12.1129569, 44.7036809 ], [ 12.112957, 44.7036811 ], [ 12.1129572, 44.7036813 ], [ 12.1129573, 44.7036815 ], [ 12.1129574, 44.7036817 ], [ 12.1129575, 44.7036818 ], [ 12.1129576, 44.703682 ], [ 12.1129576, 44.7036822 ], [ 12.1129577, 44.7036824 ], [ 12.1129578, 44.7036826 ], [ 12.1129579, 44.7036828 ], [ 12.112958, 44.7036829 ], [ 12.112958, 44.7036831 ], [ 12.1129581, 44.7036833 ], [ 12.1129581, 44.7036835 ], [ 12.1129582, 44.7036837 ], [ 12.1129583, 44.7036839 ], [ 12.1129583, 44.7036841 ], [ 12.1129583, 44.7036843 ], [ 12.1129584, 44.7036845 ], [ 12.1129584, 44.7036847 ], [ 12.1129584, 44.7036849 ], [ 12.1129584, 44.703685 ], [ 12.1129585, 44.7036852 ], [ 12.1129585, 44.7036854 ], [ 12.1129585, 44.7036856 ], [ 12.1129585, 44.7036857 ], [ 12.1129586, 44.7036859 ], [ 12.1129586, 44.703686 ], [ 12.1129587, 44.7036861 ], [ 12.1129587, 44.7036862 ], [ 12.1129588, 44.7036863 ], [ 12.1129588, 44.7036864 ], [ 12.1129588, 44.7036866 ], [ 12.1129589, 44.7036867 ], [ 12.1129589, 44.7036868 ], [ 12.1129589, 44.7036869 ], [ 12.1129589, 44.703687 ], [ 12.112959, 44.7036872 ], [ 12.112959, 44.7036873 ], [ 12.112959, 44.7036874 ], [ 12.112959, 44.7036875 ], [ 12.112959, 44.7036876 ], [ 12.112959, 44.7036878 ], [ 12.112959, 44.7036879 ], [ 12.112959, 44.703688 ], [ 12.112959, 44.7036881 ], [ 12.112959, 44.7036882 ], [ 12.112959, 44.7036884 ], [ 12.112959, 44.7036885 ], [ 12.1129589, 44.7036886 ], [ 12.1129589, 44.7036887 ], [ 12.1129589, 44.7036888 ], [ 12.1129589, 44.703689 ], [ 12.1129589, 44.7036891 ], [ 12.1129588, 44.7036892 ], [ 12.1129588, 44.7036893 ], [ 12.1129587, 44.7036894 ], [ 12.1129587, 44.7036896 ], [ 12.1129587, 44.7036897 ], [ 12.1129586, 44.7036898 ], [ 12.1129586, 44.7036899 ], [ 12.1129585, 44.70369 ], [ 12.1129585, 44.7036901 ], [ 12.1129584, 44.7036902 ], [ 12.1129584, 44.7036904 ], [ 12.1129583, 44.7036905 ], [ 12.1129582, 44.7036906 ], [ 12.1129582, 44.7036907 ], [ 12.1129581, 44.7036908 ], [ 12.112958, 44.7036909 ], [ 12.1129579, 44.703691 ], [ 12.1129579, 44.7036911 ], [ 12.1129578, 44.7036912 ], [ 12.1129577, 44.7036913 ], [ 12.1129576, 44.7036914 ], [ 12.1129575, 44.7036915 ], [ 12.1129574, 44.7036916 ], [ 12.1129573, 44.7036917 ], [ 12.1129572, 44.7036918 ], [ 12.1129571, 44.7036919 ], [ 12.112957, 44.703692 ], [ 12.1129569, 44.7036921 ], [ 12.1129568, 44.7036922 ], [ 12.1129567, 44.7036923 ], [ 12.1129566, 44.7036924 ], [ 12.1129565, 44.7036925 ], [ 12.1129564, 44.7036926 ], [ 12.1129563, 44.7036927 ], [ 12.1129562, 44.7036928 ], [ 12.112956, 44.7036929 ], [ 12.1129559, 44.7036929 ], [ 12.1129558, 44.703693 ], [ 12.1129557, 44.7036931 ], [ 12.1129555, 44.7036932 ], [ 12.1129554, 44.7036933 ], [ 12.1129553, 44.7036933 ], [ 12.1129551, 44.7036934 ], [ 12.112955, 44.7036935 ], [ 12.1129549, 44.7036935 ], [ 12.1129547, 44.7036936 ], [ 12.1129546, 44.7036937 ], [ 12.1129544, 44.7036937 ], [ 12.1129543, 44.7036938 ], [ 12.1129542, 44.7036939 ], [ 12.112954, 44.7036939 ], [ 12.1129534, 44.7036941 ], [ 12.1129528, 44.7036942 ], [ 12.1129522, 44.7036943 ], [ 12.1129516, 44.7036945 ], [ 12.112951, 44.7036946 ], [ 12.1129504, 44.7036947 ], [ 12.1129498, 44.7036948 ], [ 12.1129492, 44.7036949 ], [ 12.1129486, 44.7036949 ], [ 12.112948, 44.703695 ], [ 12.1129474, 44.7036951 ], [ 12.1129468, 44.7036951 ], [ 12.1129462, 44.7036952 ], [ 12.1129455, 44.7036952 ], [ 12.1129449, 44.7036953 ], [ 12.1129443, 44.7036953 ], [ 12.1129437, 44.7036953 ], [ 12.1129431, 44.7036953 ], [ 12.1129424, 44.7036953 ], [ 12.1129418, 44.7036953 ], [ 12.1129412, 44.7036953 ], [ 12.1129406, 44.7036953 ], [ 12.11294, 44.7036953 ], [ 12.1129393, 44.7036953 ] ] ] } }
]
}
