{
    "type": "FeatureCollection",
    "features": [
      {
        "type": "Feature",
        "geometry": {
          "type": "Polygon",
          "coordinates": [
            [
              [
                12.114281544070666,
                44.695212180498
              ],
              [
                12.114205588914905,
                44.6952002392496
              ],
              [
                12.114127247612222,
                44.69517434979458
              ],
              [
                12.114063432636264,
                44.69514455968402
              ],
              [
                12.114030368699787,
                44.69510809157158
              ],
              [
                12.114018181636506,
                44.695064046694775
              ],
              [
                12.114011658944388,
                44.69500349716437
              ],
              [
                12.11397903242893,
                44.69497519166007
              ],
              [
                12.114012631774667,
                44.69489953287684
              ],
              [
                12.1140250308144,
                44.69485598466831
              ],
              [
                12.114068250040374,
                44.69477656044716
              ],
              [
                12.114145168525932,
                44.694714901033215
              ],
              [
                12.114203344785324,
                44.69467010327688
              ],
              [
                12.114254963554734,
                44.69468621200359
              ],
              [
                12.114354869806835,
                44.69471735219463
              ],
              [
                12.114395029122257,
                44.694794500880136
              ],
              [
                12.11440343658104,
                44.69485967030741
              ],
              [
                12.114382289739977,
                44.694920826354654
              ],
              [
                12.114389825212628,
                44.694972154337435
              ],
              [
                12.114414902095328,
                44.69501234356744
              ],
              [
                12.114419040267384,
                44.69505894406566
              ],
              [
                12.114343114112849,
                44.6951696254422
              ],
              [
                12.114313740873015,
                44.695201958811545
              ],
              [
                12.114281544070666,
                44.695212180498
              ]
            ]
          ]
        },
        "properties": {
          "Shape_Leng": 152.014756076,
          "Dosso": "B",
          "Fonte": "Desantis 2017, tav 44b",
          "Precisione": "2",
          "Shape_Le_1": 152.014756077,
          "Shape_Area": 1508.80581504,
          "dosso_sint": "B"
        }
      },
      {
        "type": "Feature",
        "geometry": {
          "type": "Polygon",
          "coordinates": [
            [
              [
                12.092423292382037,
                44.695413887975256
              ],
              [
                12.092096651126553,
                44.69420650892812
              ],
              [
                12.091860691330618,
                44.69340536477776
              ],
              [
                12.091703011297206,
                44.69290738793027
              ],
              [
                12.091685382213974,
                44.692705980968015
              ],
              [
                12.09171338632628,
                44.692454097319526
              ],
              [
                12.091830653241612,
                44.69232289524783
              ],
              [
                12.092004373322656,
                44.692214783290154
              ],
              [
                12.092224248820848,
                44.69206602806126
              ],
              [
                12.092977406353599,
                44.6916910846486
              ],
              [
                12.093392195298392,
                44.69144348692888
              ],
              [
                12.093772173575928,
                44.69131993201486
              ],
              [
                12.09424359235254,
                44.69122836418673
              ],
              [
                12.09468106923827,
                44.69114756305536
              ],
              [
                12.094901641954142,
                44.69114158022267
              ],
              [
                12.095033393332354,
                44.69115277843405
              ],
              [
                12.09514446606123,
                44.69116453744835
              ],
              [
                12.095166979675902,
                44.691198394832846
              ],
              [
                12.094839293217001,
                44.691655369154766
              ],
              [
                12.094486912597965,
                44.692167176432896
              ],
              [
                12.0943544765672,
                44.69240219696898
              ],
              [
                12.094266622088686,
                44.692567072100914
              ],
              [
                12.094228932585196,
                44.69263703043845
              ],
              [
                12.094179815383022,
                44.69275161481135
              ],
              [
                12.094131746236956,
                44.69288586680336
              ],
              [
                12.094096414900829,
                44.69300007728682
              ],
              [
                12.094022869256051,
                44.69317441222292
              ],
              [
                12.093792454196183,
                44.69364351769367
              ],
              [
                12.093650156231735,
                44.69395266500837
              ],
              [
                12.093563869753428,
                44.69414704114444
              ],
              [
                12.093401937619076,
                44.69447641653651
              ],
              [
                12.093250908388844,
                44.694751331940616
              ],
              [
                12.093090806897244,
                44.695115125339264
              ],
              [
                12.09299474175989,
                44.695255601950564
              ],
              [
                12.09292197621852,
                44.695444687025905
              ],
              [
                12.092844494668999,
                44.69554526763154
              ],
              [
                12.092805229851304,
                44.695585724090776
              ],
              [
                12.092766226949008,
                44.695631097450956
              ],
              [
                12.092712389229147,
                44.69565717685223
              ],
              [
                12.092678183959398,
                44.69566302802448
              ],
              [
                12.092637347192973,
                44.69567398294884
              ],
              [
                12.09256841270259,
                44.69567585141106
              ],
              [
                12.092554625803709,
                44.69567622509852
              ],
              [
                12.092423292382037,
                44.695413887975256
              ]
            ]
          ]
        },
        "properties": {
          "id": 1,
          "nome": "Abitato",
          "tipo": "certo"
        }
      },
      {
        "type": "Feature",
        "geometry": {
          "type": "Polygon",
          "coordinates": [
            [
              [
                12.113542719721208,
                44.69303542711688
              ],
              [
                12.11343741721557,
                44.69305166553076
              ],
              [
                12.113157974139119,
                44.693081565188145
              ],
              [
                12.113119875260564,
                44.69295341175583
              ],
              [
                12.113052808953842,
                44.692634485557484
              ],
              [
                12.112970850858119,
                44.69238724488918
              ],
              [
                12.11293159414853,
                44.69212102024034
              ],
              [
                12.112902355470782,
                44.69204162847499
              ],
              [
                12.113118715847618,
                44.692000086103455
              ],
              [
                12.113303623355296,
                44.692070774879745
              ],
              [
                12.113476467087013,
                44.69238235896268
              ],
              [
                12.113560269712643,
                44.692896845256456
              ],
              [
                12.113542719721208,
                44.69303542711688
              ]
            ]
          ]
        },
        "properties": {
          "Shape_Leng": 293.154294657,
          "Dosso": "B",
          "Fonte": "Desantis 2017, tav 44e",
          "Precisione": "3",
          "Shape_Le_1": 293.154294655,
          "Shape_Area": 4118.39995865,
          "dosso_sint": "B"
        }
      },
      {
        "type": "Feature",
        "geometry": {
          "type": "Polygon",
          "coordinates": [
            [
              [
                12.112370084452735,
                44.69234607686522
              ],
              [
                12.112314970087683,
                44.692361836012545
              ],
              [
                12.112188953325113,
                44.69232250644917
              ],
              [
                12.112050199283933,
                44.692269267251675
              ],
              [
                12.111945688063107,
                44.69218373194453
              ],
              [
                12.11188124114111,
                44.69209995504456
              ],
              [
                12.11191642324983,
                44.6920106093349
              ],
              [
                12.112053977952318,
                44.69196694121511
              ],
              [
                12.112203613527411,
                44.69207405535681
              ],
              [
                12.112362780485878,
                44.692135290018925
              ],
              [
                12.112470825770693,
                44.69221217495894
              ],
              [
                12.112405723368038,
                44.692265272226024
              ],
              [
                12.112420138107284,
                44.69231049714581
              ],
              [
                12.112370084452735,
                44.69234607686522
              ]
            ]
          ]
        },
        "properties": {
          "Shape_Leng": 135.438084515,
          "Dosso": "B",
          "Fonte": "Desantis 2017, tav 44e",
          "Precisione": "3",
          "Shape_Le_1": 135.438084522,
          "Shape_Area": 1105.32712895,
          "dosso_sint": ""
        }
      },
      {
        "type": "Feature",
        "geometry": {
          "type": "Polygon",
          "coordinates": [
            [
              [
                12.11207846907694,
                44.69047814546815
              ],
              [
                12.1119892192579,
                44.6905607683264
              ],
              [
                12.111863305564253,
                44.690541928395625
              ],
              [
                12.111436979775279,
                44.69016151996902
              ],
              [
                12.111121678568507,
                44.68987163713674
              ],
              [
                12.110693693836033,
                44.689460087319056
              ],
              [
                12.110528738685938,
                44.68929529632693
              ],
              [
                12.11024315504443,
                44.68909369901703
              ],
              [
                12.110104574929057,
                44.688954918545775
              ],
              [
                12.110185921443394,
                44.68884132809809
              ],
              [
                12.110363188217514,
                44.68876967132163
              ],
              [
                12.11080125289173,
                44.68913639869835
              ],
              [
                12.111350342011884,
                44.68959365045827
              ],
              [
                12.111742858661945,
                44.68992597663571
              ],
              [
                12.11199198853191,
                44.690146383285146
              ],
              [
                12.112157189662533,
                44.69031562009443
              ],
              [
                12.112114346525551,
                44.690404072540936
              ],
              [
                12.11207846907694,
                44.69047814546815
              ]
            ]
          ]
        },
        "properties": {
          "Shape_Leng": 519.594179759,
          "Dosso": "B",
          "Fonte": "Desantis 2017, tav 44e",
          "Precisione": "3",
          "Shape_Le_1": 519.594179759,
          "Shape_Area": 7465.56649924,
          "dosso_sint": "B"
        }
      },
      {
        "type": "Feature",
        "geometry": {
          "type": "Polygon",
          "coordinates": [
            [
              [
                12.110983615961864,
                44.69032535060846
              ],
              [
                12.110910451905502,
                44.69035852973894
              ],
              [
                12.110707560294031,
                44.69030169264068
              ],
              [
                12.110554081582006,
                44.69023459786715
              ],
              [
                12.110568499006238,
                44.69015401621883
              ],
              [
                12.110612905638884,
                44.69005034147273
              ],
              [
                12.110788707337496,
                44.69006782355178
              ],
              [
                12.111036203681246,
                44.69014126379194
              ],
              [
                12.111157548648153,
                44.69019141504036
              ],
              [
                12.111093719643167,
                44.690282253465654
              ],
              [
                12.110983615961864,
                44.69032535060846
              ]
            ]
          ]
        },
        "properties": {
          "Shape_Leng": 127.209648804,
          "Dosso": "B",
          "Fonte": "Desantis 2017, tav 44e",
          "Precisione": "3",
          "Shape_Le_1": 127.209648805,
          "Shape_Area": 1039.366299,
          "dosso_sint": ""
        }
      },
      {
        "type": "Feature",
        "geometry": {
          "type": "Polygon",
          "coordinates": [
            [
              [
                12.116654306825652,
                44.69639024191605
              ],
              [
                12.116519040122878,
                44.69623383750823
              ],
              [
                12.116490221348613,
                44.696060604096544
              ],
              [
                12.116290144502482,
                44.69578763505343
              ],
              [
                12.116148164657657,
                44.69550611796585
              ],
              [
                12.116009170198405,
                44.69528020668076
              ],
              [
                12.115953358490321,
                44.69514947482666
              ],
              [
                12.116147217985214,
                44.694761333948115
              ],
              [
                12.116186326945735,
                44.69421732087088
              ],
              [
                12.116151913043595,
                44.6939398264905
              ],
              [
                12.11608225433972,
                44.69373290414646
              ],
              [
                12.116094280730518,
                44.6935933586004
              ],
              [
                12.11608616091051,
                44.69307847874806
              ],
              [
                12.116120703741895,
                44.692813022919786
              ],
              [
                12.11611789519711,
                44.69261728290933
              ],
              [
                12.116152152767818,
                44.692510854110125
              ],
              [
                12.116105651189974,
                44.69246365475915
              ],
              [
                12.116106891974265,
                44.69241229930677
              ],
              [
                12.11614728117438,
                44.69234562019229
              ],
              [
                12.116152512824806,
                44.6922941558429
              ],
              [
                12.116168953926081,
                44.69222813001863
              ],
              [
                12.116118614304368,
                44.692183886349625
              ],
              [
                12.116122470816062,
                44.692106800068345
              ],
              [
                12.116074289226212,
                44.69202828342479
              ],
              [
                12.116019499778961,
                44.691975607344716
              ],
              [
                12.116015832542011,
                44.69190728008197
              ],
              [
                12.11610873566224,
                44.69177644017519
              ],
              [
                12.116154049363162,
                44.691652603097985
              ],
              [
                12.116152997764845,
                44.69155854320447
              ],
              [
                12.116140736808166,
                44.691479045686485
              ],
              [
                12.116096241250963,
                44.69139472570614
              ],
              [
                12.115978969944816,
                44.69136941734428
              ],
              [
                12.115816268060966,
                44.69131683689634
              ],
              [
                12.115714351210785,
                44.69127970385069
              ],
              [
                12.115621026661366,
                44.69125374097376
              ],
              [
                12.115578976472989,
                44.69121497292459
              ],
              [
                12.115596029600036,
                44.69116033522518
              ],
              [
                12.115541241377903,
                44.69110765894083
              ],
              [
                12.115455766566718,
                44.69100449994046
              ],
              [
                12.115455480357452,
                44.690924675782796
              ],
              [
                12.11551506022347,
                44.69084321591381
              ],
              [
                12.115463500083848,
                44.69077619593303
              ],
              [
                12.115434512644546,
                44.69068289902749
              ],
              [
                12.115380661017927,
                44.690573174575775
              ],
              [
                12.115340005374364,
                44.69048589868574
              ],
              [
                12.115311476066886,
                44.69040114298849
              ],
              [
                12.115316097763841,
                44.69033829066308
              ],
              [
                12.115272825053509,
                44.69027674642733
              ],
              [
                12.115226632395432,
                44.6902352403556
              ],
              [
                12.115260585987679,
                44.69012311826554
              ],
              [
                12.115320928246682,
                44.690055894165965
              ],
              [
                12.115306052629194,
                44.69000212828597
              ],
              [
                12.115235302719471,
                44.68994988735618
              ],
              [
                12.115250675795089,
                44.68986393329945
              ],
              [
                12.115250541148724,
                44.68978695588172
              ],
              [
                12.115213113947977,
                44.689685335395104
              ],
              [
                12.115185349437585,
                44.689614814496096
              ],
              [
                12.11517599480746,
                44.68948703456757
              ],
              [
                12.115191123177125,
                44.68941979817504
              ],
              [
                12.115261419533162,
                44.68933323497634
              ],
              [
                12.115295970475202,
                44.68927883169602
              ],
              [
                12.115483770440141,
                44.689240796586816
              ],
              [
                12.115632890756958,
                44.689269353720775
              ],
              [
                12.11582925572178,
                44.68929183452701
              ],
              [
                12.115893313828662,
                44.68939449789098
              ],
              [
                12.115949963285635,
                44.689488442509976
              ],
              [
                12.115917998259333,
                44.689637575746346
              ],
              [
                12.115903085402126,
                44.68973207119046
              ],
              [
                12.115963867360502,
                44.68974751861672
              ],
              [
                12.116031084933391,
                44.689808408338145
              ],
              [
                12.116035635354086,
                44.689856463194864
              ],
              [
                12.115939102127346,
                44.68995632990146
              ],
              [
                12.115943465638287,
                44.68999559470992
              ],
              [
                12.115995110812335,
                44.69003178201304
              ],
              [
                12.116112226795549,
                44.690054243515156
              ],
              [
                12.116168695039645,
                44.690138235916656
              ],
              [
                12.116175107326331,
                44.690220817458325
              ],
              [
                12.116155462802928,
                44.690264048687325
              ],
              [
                12.116182158975251,
                44.69031464010159
              ],
              [
                12.116228658939189,
                44.69036184029314
              ],
              [
                12.116234478697203,
                44.690444284424075
              ],
              [
                12.116191767982961,
                44.69056813152132
              ],
              [
                12.116246538315336,
                44.69069493813031
              ],
              [
                12.1162976508897,
                44.69077761941906
              ],
              [
                12.116368548453213,
                44.690827586738834
              ],
              [
                12.116534110680437,
                44.69086199195451
              ],
              [
                12.116536155718308,
                44.690956111165
              ],
              [
                12.116511538865737,
                44.69103453995683
              ],
              [
                12.116633083605848,
                44.691096099909224
              ],
              [
                12.116633979605785,
                44.69131974460268
              ],
              [
                12.116683108957535,
                44.69151969601929
              ],
              [
                12.116682434136191,
                44.69163387559401
              ],
              [
                12.116706645124395,
                44.691703960636076
              ],
              [
                12.116755706532306,
                44.69177074406876
              ],
              [
                12.116779958414165,
                44.691883620664434
              ],
              [
                12.11681068270198,
                44.69194766137809
              ],
              [
                12.116836344403604,
                44.692002108274444
              ],
              [
                12.116885059023392,
                44.69206241294866
              ],
              [
                12.116877959588354,
                44.69219557714301
              ],
              [
                12.11692254799636,
                44.692337128446695
              ],
              [
                12.116942432044864,
                44.6924533686247
              ],
              [
                12.116851763903377,
                44.692543433131476
              ],
              [
                12.116843552107198,
                44.69270341670691
              ],
              [
                12.116768199212547,
                44.69286576749751
              ],
              [
                12.116829665123975,
                44.692926372764894
              ],
              [
                12.116906219934032,
                44.692996946653814
              ],
              [
                12.117049842460293,
                44.693069840578204
              ],
              [
                12.117153779104635,
                44.69316250449121
              ],
              [
                12.117170401020738,
                44.69330945719859
              ],
              [
                12.11714652284804,
                44.69345200098476
              ],
              [
                12.117132047011609,
                44.6935384208373
              ],
              [
                12.117197722619222,
                44.693601447638606
              ],
              [
                12.117146063435365,
                44.69366929626598
              ],
              [
                12.117025863892273,
                44.69381583420804
              ],
              [
                12.116850628057932,
                44.6941299686406
              ],
              [
                12.116707332055952,
                44.694385096895246
              ],
              [
                12.116584832849306,
                44.694644718664364
              ],
              [
                12.116535902317079,
                44.69474986216684
              ],
              [
                12.116598765798738,
                44.69481951323802
              ],
              [
                12.116702326083072,
                44.69488480741463
              ],
              [
                12.116802563338544,
                44.6949729013222
              ],
              [
                12.116885853882469,
                44.69508416553957
              ],
              [
                12.116875822136913,
                44.69514075065171
              ],
              [
                12.11704704158858,
                44.69520627757555
              ],
              [
                12.117191649603958,
                44.695273694909964
              ],
              [
                12.11730464290495,
                44.69534521875601
              ],
              [
                12.117121678061185,
                44.695749227856446
              ],
              [
                12.117043374221465,
                44.695984933968454
              ],
              [
                12.116823571783595,
                44.69629587359358
              ],
              [
                12.116804864564456,
                44.6963709966333
              ],
              [
                12.116654306825652,
                44.69639024191605
              ]
            ]
          ]
        },
        "properties": {
          "Shape_Leng": 1808.90402544,
          "Dosso": "A",
          "Fonte": "Desantis 2017, tav 44e",
          "Precisione": "3",
          "Shape_Le_1": 1808.90402544,
          "Shape_Area": 49078.5305055,
          "dosso_sint": "A"
        }
      },
      {
        "type": "Feature",
        "geometry": {
          "type": "Polygon",
          "coordinates": [
            [
              [
                12.110885621665876,
                44.69333739113884
              ],
              [
                12.110760976854003,
                44.693321169838306
              ],
              [
                12.110640733820619,
                44.693301557851186
              ],
              [
                12.110481771276937,
                44.693243762152754
              ],
              [
                12.110344647000526,
                44.69316575055386
              ],
              [
                12.110217378679874,
                44.69310055030269
              ],
              [
                12.110209652290084,
                44.693041900769224
              ],
              [
                12.110243824055217,
                44.692995189391326
              ],
              [
                12.110363015656517,
                44.69299521040392
              ],
              [
                12.110465570807008,
                44.693062359816516
              ],
              [
                12.110617378694878,
                44.6931223456368
              ],
              [
                12.110720009848015,
                44.693155517420145
              ],
              [
                12.110891656016877,
                44.6931933472568
              ],
              [
                12.111043066180807,
                44.693195758882055
              ],
              [
                12.111145173081761,
                44.69321913462571
              ],
              [
                12.111184593960925,
                44.69327037969364
              ],
              [
                12.111182991009208,
                44.69332601286582
              ],
              [
                12.111037733049574,
                44.69335286389716
              ],
              [
                12.110885621665876,
                44.69333739113884
              ]
            ]
          ]
        },
        "properties": {
          "Shape_Leng": 290.488248088,
          "Dosso": "E",
          "Fonte": "Desantis 2017, tav 44e",
          "Precisione": "3",
          "Shape_Le_1": 187.402609577,
          "Shape_Area": 1305.71186392,
          "dosso_sint": "E"
        }
      },
      {
        "type": "Feature",
        "geometry": {
          "type": "Polygon",
          "coordinates": [
            [
              [
                12.11049461673656,
                44.69573834244287
              ],
              [
                12.110440988101267,
                44.69575602427219
              ],
              [
                12.110305440772828,
                44.69577269571626
              ],
              [
                12.110186322405035,
                44.69575647823865
              ],
              [
                12.110098474635645,
                44.69572967730045
              ],
              [
                12.110054304016556,
                44.69566924537438
              ],
              [
                12.110032146410678,
                44.69559523825817
              ],
              [
                12.110063618697655,
                44.695503548641625
              ],
              [
                12.110128990461025,
                44.69536551949363
              ],
              [
                12.110234512413395,
                44.69529776338031
              ],
              [
                12.110325513450698,
                44.69529852576442
              ],
              [
                12.110571615090027,
                44.69530803710869
              ],
              [
                12.110659115988273,
                44.695328358965185
              ],
              [
                12.110630249686071,
                44.69546863789712
              ],
              [
                12.110610291850247,
                44.69560542894962
              ],
              [
                12.11049461673656,
                44.69573834244287
              ]
            ]
          ]
        },
        "properties": {
          "Shape_Leng": 169.195602775,
          "Dosso": "D",
          "Fonte": "Desantis 2017, tav 44e",
          "Precisione": "3",
          "Shape_Le_1": 169.195602772,
          "Shape_Area": 2067.17875198,
          "dosso_sint": ""
        }
      },
      {
        "type": "Feature",
        "geometry": {
          "type": "Polygon",
          "coordinates": [
            [
              [
                12.11377297653635,
                44.68524388610029
              ],
              [
                12.113676600483299,
                44.68530987571938
              ],
              [
                12.113519709624871,
                44.685282477904984
              ],
              [
                12.113157770093483,
                44.68515771555971
              ],
              [
                12.112945938974862,
                44.68493381776699
              ],
              [
                12.11289269527326,
                44.68476895312521
              ],
              [
                12.11276312656045,
                44.684629929384556
              ],
              [
                12.112620777482727,
                44.68445957553225
              ],
              [
                12.11262465606535,
                44.68432483109487
              ],
              [
                12.112705283944425,
                44.68417215335686
              ],
              [
                12.112809776316219,
                44.684050504399664
              ],
              [
                12.112878470182002,
                44.683882312518236
              ],
              [
                12.112979994732024,
                44.6837053043535
              ],
              [
                12.112984296907435,
                44.68357846831531
              ],
              [
                12.112944682946472,
                44.683460750500885
              ],
              [
                12.112802760557273,
                44.68329830535522
              ],
              [
                12.112665077950183,
                44.68321494259539
              ],
              [
                12.112588395234258,
                44.68302695647489
              ],
              [
                12.112588883792494,
                44.68282894546144
              ],
              [
                12.112850258570642,
                44.682734696232046
              ],
              [
                12.113186620698034,
                44.68279679755314
              ],
              [
                12.113331086879246,
                44.683006693735784
              ],
              [
                12.113370682913535,
                44.68320716992094
              ],
              [
                12.113591067671637,
                44.68330055568202
              ],
              [
                12.113785024474899,
                44.68339822114189
              ],
              [
                12.11378440073687,
                44.68349378087415
              ],
              [
                12.114104310357648,
                44.68355582434383
              ],
              [
                12.114505916805493,
                44.68359238215841
              ],
              [
                12.114650813252291,
                44.68381018433744
              ],
              [
                12.114557191327401,
                44.683963093038514
              ],
              [
                12.114706606313348,
                44.684022497989204
              ],
              [
                12.114398674033236,
                44.684425346507666
              ],
              [
                12.114102319699612,
                44.684553786654284
              ],
              [
                12.114102262012768,
                44.68475970533626
              ],
              [
                12.113964031663075,
                44.685080273769096
              ],
              [
                12.11377297653635,
                44.68524388610029
              ]
            ]
          ]
        },
        "properties": {
          "Shape_Leng": 770.025662303,
          "Dosso": "C",
          "Fonte": "Desantis 2017, tav 44e",
          "Precisione": "1",
          "Shape_Le_1": 770.0256623,
          "Shape_Area": 26938.4765854,
          "dosso_sint": "C"
        }
      },
      {
        "type": "Feature",
        "geometry": {
          "type": "Polygon",
          "coordinates": [
            [
              [
                12.11750594557708,
                44.6799007074897
              ],
              [
                12.117395322799517,
                44.680101727734424
              ],
              [
                12.117118214787107,
                44.68010929847386
              ],
              [
                12.116963744362508,
                44.679985537568186
              ],
              [
                12.116979073670793,
                44.6797789792221
              ],
              [
                12.117126324919152,
                44.6796140828102
              ],
              [
                12.11738743830121,
                44.67963169883067
              ],
              [
                12.11756659971192,
                44.679738177289614
              ],
              [
                12.11750594557708,
                44.6799007074897
              ]
            ]
          ]
        },
        "properties": {
          "Shape_Leng": 167.127102909,
          "Dosso": "C",
          "Fonte": "Desantis 2017, tav 44e",
          "Precisione": "1",
          "Shape_Le_1": 167.127102907,
          "Shape_Area": 2002.3080684,
          "dosso_sint": ""
        }
      },
      {
        "type": "Feature",
        "geometry": {
          "type": "Polygon",
          "coordinates": [
            [
              [
                12.120578990073456,
                44.67864678168477
              ],
              [
                12.12077974163843,
                44.6788709674695
              ],
              [
                12.120889696866975,
                44.679058037627144
              ],
              [
                12.120840649800384,
                44.67917817809012
              ],
              [
                12.120644959641613,
                44.67925480940183
              ],
              [
                12.12038573799714,
                44.679388617676246
              ],
              [
                12.120259063843822,
                44.67971679818358
              ],
              [
                12.12012346554978,
                44.679878904948154
              ],
              [
                12.1198727751465,
                44.679964958620374
              ],
              [
                12.11961613740377,
                44.67994029634219
              ],
              [
                12.119398740060417,
                44.67981952170796
              ],
              [
                12.119271291683187,
                44.67972004736625
              ],
              [
                12.119371091015783,
                44.679511401688536
              ],
              [
                12.119333165547047,
                44.67942531950377
              ],
              [
                12.119271373479746,
                44.679308210649914
              ],
              [
                12.119391666793042,
                44.67924736435247
              ],
              [
                12.119337920315589,
                44.67910047378562
              ],
              [
                12.119212596890728,
                44.67904054068036
              ],
              [
                12.119116278887425,
                44.67890061522598
              ],
              [
                12.119175563913442,
                44.678764356088465
              ],
              [
                12.11930390034695,
                44.67867372898385
              ],
              [
                12.119865789044223,
                44.67859500657769
              ],
              [
                12.120578990073456,
                44.67864678168477
              ]
            ]
          ]
        },
        "properties": {
          "Shape_Leng": 486.09882318,
          "Dosso": "C",
          "Fonte": "Desantis 2017, tav 44e",
          "Precisione": "1",
          "Shape_Le_1": 486.098823185,
          "Shape_Area": 14190.0706132,
          "dosso_sint": "C"
        }
      },
      {
        "type": "Feature",
        "geometry": {
          "type": "Polygon",
          "coordinates": [
            [
              [
                12.104334128986658,
                44.69680599124936
              ],
              [
                12.104186840230305,
                44.69673202305856
              ],
              [
                12.10405026679429,
                44.696711701813314
              ],
              [
                12.104027048317626,
                44.69675606010158
              ],
              [
                12.103491909261702,
                44.69661962121934
              ],
              [
                12.103513321345579,
                44.69652727314855
              ],
              [
                12.103620291762201,
                44.69640413522453
              ],
              [
                12.103636910517707,
                44.69632365147327
              ],
              [
                12.103687394121526,
                44.69623803425844
              ],
              [
                12.10378389719556,
                44.69624048360826
              ],
              [
                12.104116126615006,
                44.696317834875586
              ],
              [
                12.104294157321446,
                44.69637029679006
              ],
              [
                12.104377940193519,
                44.6964593214198
              ],
              [
                12.104498888552415,
                44.69656127505336
              ],
              [
                12.104685477879812,
                44.696694859090606
              ],
              [
                12.104885849545749,
                44.696804820473155
              ],
              [
                12.10504156014523,
                44.69688368345409
              ],
              [
                12.105353263519913,
                44.69695152086342
              ],
              [
                12.105493236295027,
                44.697009008489374
              ],
              [
                12.10553745082647,
                44.697049084540545
              ],
              [
                12.105499705932758,
                44.697132029190456
              ],
              [
                12.105409223009506,
                44.69726158010262
              ],
              [
                12.105395292397947,
                44.69728819525275
              ],
              [
                12.105448048025728,
                44.69732549149238
              ],
              [
                12.105489260636764,
                44.69734151939629
              ],
              [
                12.105563592611013,
                44.69736737686987
              ],
              [
                12.105508150938952,
                44.69738394959066
              ],
              [
                12.10538167779702,
                44.697392727474394
              ],
              [
                12.105312902280435,
                44.69742394437563
              ],
              [
                12.105285787023757,
                44.69746221106189
              ],
              [
                12.105097867892441,
                44.69743946486388
              ],
              [
                12.104940364786634,
                44.69739651451416
              ],
              [
                12.104850742110706,
                44.69734030366881
              ],
              [
                12.104564926028985,
                44.697090335111774
              ],
              [
                12.104400956971093,
                44.696924363354356
              ],
              [
                12.104334128986658,
                44.69680599124936
              ]
            ]
          ]
        },
        "properties": {
          "Shape_Leng": 0,
          "Dosso": "D",
          "Fonte": "Mancuso Zampieri",
          "Precisione": "3",
          "Shape_Le_1": 481.10763153,
          "Shape_Area": 7868.75753626,
          "dosso_sint": "D"
        }
      }
    ]
  }