{
"type": "FeatureCollection",
"name": "valle_trebba_palificazioni",
"crs": { "type": "name", "properties": { "name": "urn:ogc:def:crs:OGC:1.3:CRS84" } },
"features": [
{ "type": "Feature", "properties": { "id": 1 }, "geometry": { "type": "Point", "coordinates": [ 12.108616083174812, 44.701924919416761 ] } },
{ "type": "Feature", "properties": { "id": 2 }, "geometry": { "type": "Point", "coordinates": [ 12.10865190777519, 44.701997388169602 ] } },
{ "type": "Feature", "properties": { "id": 3 }, "geometry": { "type": "Point", "coordinates": [ 12.108687008186898, 44.702047435169739 ] } },
{ "type": "Feature", "properties": { "id": 4 }, "geometry": { "type": "Point", "coordinates": [ 12.10873911010663, 44.702121160509918 ] } },
{ "type": "Feature", "properties": { "id": 5 }, "geometry": { "type": "Point", "coordinates": [ 12.108833090924607, 44.70218456413852 ] } },
{ "type": "Feature", "properties": { "id": 7 }, "geometry": { "type": "Point", "coordinates": [ 12.109040310548266, 44.702119073821486 ] } },
{ "type": "Feature", "properties": { "id": 8 }, "geometry": { "type": "Point", "coordinates": [ 12.109033974437571, 44.702018599873924 ] } },
{ "type": "Feature", "properties": { "id": 9 }, "geometry": { "type": "Point", "coordinates": [ 12.108998158814538, 44.701919609257054 ] } },
{ "type": "Feature", "properties": { "id": 9 }, "geometry": { "type": "Point", "coordinates": [ 12.108913148775953, 44.701443554284914 ] } },
{ "type": "Feature", "properties": { "id": 10 }, "geometry": { "type": "Point", "coordinates": [ 12.108962760184937, 44.701430815253794 ] } },
{ "type": "Feature", "properties": { "id": 11 }, "geometry": { "type": "Point", "coordinates": [ 12.109015219062133, 44.701419311572771 ] } },
{ "type": "Feature", "properties": { "id": 12 }, "geometry": { "type": "Point", "coordinates": [ 12.10906400165786, 44.70140438139061 ] } },
{ "type": "Feature", "properties": { "id": 13 }, "geometry": { "type": "Point", "coordinates": [ 12.109113845480147, 44.701391462403194 ] } },
{ "type": "Feature", "properties": { "id": 14 }, "geometry": { "type": "Point", "coordinates": [ 12.109162737161691, 44.701378569340108 ] } },
{ "type": "Feature", "properties": { "id": 15 }, "geometry": { "type": "Point", "coordinates": [ 12.109212508178937, 44.701364292204104 ] } },
{ "type": "Feature", "properties": { "id": 16 }, "geometry": { "type": "Point", "coordinates": [ 12.109212508178937, 44.701364292204104 ] } },
{ "type": "Feature", "properties": { "id": 17 }, "geometry": { "type": "Point", "coordinates": [ 12.109254880514357, 44.701354296937069 ] } },
{ "type": "Feature", "properties": { "id": 17 }, "geometry": { "type": "Point", "coordinates": [ 12.109293262465439, 44.701341010174843 ] } },
{ "type": "Feature", "properties": { "id": 18 }, "geometry": { "type": "Point", "coordinates": [ 12.108894190683293, 44.701387704206326 ] } },
{ "type": "Feature", "properties": { "id": 19 }, "geometry": { "type": "Point", "coordinates": [ 12.108939877209574, 44.701376210850341 ] } },
{ "type": "Feature", "properties": { "id": 20 }, "geometry": { "type": "Point", "coordinates": [ 12.108993048282382, 44.701361431861862 ] } },
{ "type": "Feature", "properties": { "id": 21 }, "geometry": { "type": "Point", "coordinates": [ 12.109035347903372, 44.701350078568538 ] } },
{ "type": "Feature", "properties": { "id": 22 }, "geometry": { "type": "Point", "coordinates": [ 12.10908522806462, 44.701337838648023 ] } },
{ "type": "Feature", "properties": { "id": 23 }, "geometry": { "type": "Point", "coordinates": [ 12.10912851614381, 44.701327138429612 ] } },
{ "type": "Feature", "properties": { "id": 4 }, "geometry": { "type": "Point", "coordinates": [ 12.109180820282388, 44.701313847999501 ] } },
{ "type": "Feature", "properties": { "id": 25 }, "geometry": { "type": "Point", "coordinates": [ 12.109235183952743, 44.70130040998793 ] } },
{ "type": "Feature", "properties": { "id": 26 }, "geometry": { "type": "Point", "coordinates": [ 12.109289425760892, 44.701284697830928 ] } },
{ "type": "Feature", "properties": { "id": 20 }, "geometry": { "type": "Point", "coordinates": [ 12.110127908060861, 44.70435512816703 ] } },
{ "type": "Feature", "properties": { "id": 22 }, "geometry": { "type": "Point", "coordinates": [ 12.110146486714918, 44.704361507182874 ] } },
{ "type": "Feature", "properties": { "id": 23 }, "geometry": { "type": "Point", "coordinates": [ 12.109888138699439, 44.704084715655924 ] } },
{ "type": "Feature", "properties": { "id": 24 }, "geometry": { "type": "Point", "coordinates": [ 12.109912366471161, 44.704076404784018 ] } },
{ "type": "Feature", "properties": { "id": 25 }, "geometry": { "type": "Point", "coordinates": [ 12.10994409250273, 44.704067889525568 ] } },
{ "type": "Feature", "properties": { "id": 26 }, "geometry": { "type": "Point", "coordinates": [ 12.109974747343761, 44.704059403456284 ] } },
{ "type": "Feature", "properties": { "id": 27 }, "geometry": { "type": "Point", "coordinates": [ 12.110004330994816, 44.704050946576906 ] } },
{ "type": "Feature", "properties": { "id": 28 }, "geometry": { "type": "Point", "coordinates": [ 12.110021258471507, 44.704066551220649 ] } },
{ "type": "Feature", "properties": { "id": 29 }, "geometry": { "type": "Point", "coordinates": [ 12.109993653413571, 44.704071893972689 ] } },
{ "type": "Feature", "properties": { "id": 30 }, "geometry": { "type": "Point", "coordinates": [ 12.109964151631486, 44.70408187871768 ] } },
{ "type": "Feature", "properties": { "id": 31 }, "geometry": { "type": "Point", "coordinates": [ 12.109936977944347, 44.70408765871349 ] } },
{ "type": "Feature", "properties": { "id": null }, "geometry": { "type": "Point", "coordinates": [ 12.109885155777604, 44.70410387458346 ] } },
{ "type": "Feature", "properties": { "id": 32 }, "geometry": { "type": "Point", "coordinates": [ 12.109906344679279, 44.704097034083254 ] } },
{ "type": "Feature", "properties": { "id": 32 }, "geometry": null },
{ "type": "Feature", "properties": { "id": 35 }, "geometry": { "type": "Point", "coordinates": [ 12.11050290241074, 44.704166266478722 ] } },
{ "type": "Feature", "properties": { "id": null }, "geometry": { "type": "Point", "coordinates": [ 12.110510841309219, 44.704204302545755 ] } },
{ "type": "Feature", "properties": { "id": 36 }, "geometry": { "type": "Point", "coordinates": [ 12.110557825863181, 44.704150233186567 ] } },
{ "type": "Feature", "properties": { "id": 37 }, "geometry": { "type": "Point", "coordinates": [ 12.110637222660888, 44.7041304724466 ] } },
{ "type": "Feature", "properties": { "id": 38 }, "geometry": { "type": "Point", "coordinates": [ 12.110716619401838, 44.704110711652831 ] } },
{ "type": "Feature", "properties": { "id": 39 }, "geometry": { "type": "Point", "coordinates": [ 12.11066213675514, 44.704164985502274 ] } },
{ "type": "Feature", "properties": { "id": null }, "geometry": { "type": "Point", "coordinates": [ 12.110587024650258, 44.704184629446672 ] } },
{ "type": "Feature", "properties": { "id": 3 }, "geometry": { "type": "Point", "coordinates": [ 12.110796923460329, 44.704087865866008 ] } },
{ "type": "Feature", "properties": { "id": 40 }, "geometry": { "type": "Point", "coordinates": [ 12.110839956607597, 44.704073575671579 ] } },
{ "type": "Feature", "properties": { "id": 41 }, "geometry": { "type": "Point", "coordinates": [ 12.110854002085651, 44.704112193872675 ] } },
{ "type": "Feature", "properties": { "id": 42 }, "geometry": { "type": "Point", "coordinates": [ 12.110811784262838, 44.704124948138528 ] } },
{ "type": "Feature", "properties": { "id": null }, "geometry": { "type": "Point", "coordinates": [ 12.110760487192687, 44.704138587532285 ] } },
{ "type": "Feature", "properties": { "id": 45 }, "geometry": { "type": "Point", "coordinates": [ 12.110694892944503, 44.704155676899106 ] } },
{ "type": "Feature", "properties": { "id": 50 }, "geometry": { "type": "Point", "coordinates": [ 12.110272741498973, 44.708348182584899 ] } },
{ "type": "Feature", "properties": { "id": 51 }, "geometry": { "type": "Point", "coordinates": [ 12.110295115097143, 44.708345277526995 ] } },
{ "type": "Feature", "properties": { "id": 52 }, "geometry": { "type": "Point", "coordinates": [ 12.110319631211734, 44.708342314058555 ] } },
{ "type": "Feature", "properties": { "id": 53 }, "geometry": { "type": "Point", "coordinates": [ 12.110255999359794, 44.708266013621831 ] } },
{ "type": "Feature", "properties": { "id": null }, "geometry": { "type": "Point", "coordinates": [ 12.11030979075861, 44.708258809385171 ] } },
{ "type": "Feature", "properties": { "id": 5 }, "geometry": { "type": "Point", "coordinates": [ 12.110278413878206, 44.708263872501291 ] } },
{ "type": "Feature", "properties": { "id": 60 }, "geometry": { "type": "Point", "coordinates": [ 12.110596514510963, 44.704141527927234 ] } },
{ "type": "Feature", "properties": { "id": 61 }, "geometry": { "type": "Point", "coordinates": [ 12.110625672366343, 44.704175160243416 ] } },
{ "type": "Feature", "properties": { "id": 62 }, "geometry": { "type": "Point", "coordinates": [ 12.110675778194715, 44.70411928437705 ] } },
{ "type": "Feature", "properties": { "id": 63 }, "geometry": { "type": "Point", "coordinates": [ 12.110759212309308, 44.704099796005011 ] } },
{ "type": "Feature", "properties": { "id": 4 }, "geometry": { "type": "Point", "coordinates": [ 12.110546347163654, 44.704196257860836 ] } },
{ "type": "Feature", "properties": { "id": 65 }, "geometry": { "type": "Point", "coordinates": [ 12.110728761255315, 44.704147103015472 ] } },
{ "type": "Feature", "properties": { "id": 50 }, "geometry": { "type": "Point", "coordinates": [ 12.108364615328638, 44.701340611691073 ] } },
{ "type": "Feature", "properties": { "id": 51 }, "geometry": { "type": "Point", "coordinates": [ 12.108331035748444, 44.701345962860032 ] } },
{ "type": "Feature", "properties": { "id": 52 }, "geometry": { "type": "Point", "coordinates": [ 12.108335432098748, 44.701358363468941 ] } },
{ "type": "Feature", "properties": { "id": 53 }, "geometry": { "type": "Point", "coordinates": [ 12.108338660958145, 44.701369612855814 ] } },
{ "type": "Feature", "properties": { "id": 56 }, "geometry": { "type": "Point", "coordinates": [ 12.110420738667449, 44.702365823677965 ] } },
{ "type": "Feature", "properties": { "id": 57 }, "geometry": { "type": "Point", "coordinates": [ 12.110208838316606, 44.70198702052658 ] } },
{ "type": "Feature", "properties": { "id": 58 }, "geometry": { "type": "Point", "coordinates": [ 12.110221436017056, 44.701984405978926 ] } },
{ "type": "Feature", "properties": { "id": 59 }, "geometry": { "type": "Point", "coordinates": [ 12.110233014292699, 44.701982576265699 ] } },
{ "type": "Feature", "properties": { "id": 60 }, "geometry": { "type": "Point", "coordinates": [ 12.110245591734463, 44.701979583744311 ] } },
{ "type": "Feature", "properties": { "id": null }, "geometry": { "type": "Point", "coordinates": [ 12.108852430410973, 44.701398311146235 ] } },
{ "type": "Feature", "properties": { "id": null }, "geometry": { "type": "Point", "coordinates": [ 12.108809232820642, 44.701408784398978 ] } },
{ "type": "Feature", "properties": { "id": null }, "geometry": { "type": "Point", "coordinates": [ 12.108773366084446, 44.701417065843124 ] } },
{ "type": "Feature", "properties": { "id": null }, "geometry": { "type": "Point", "coordinates": [ 12.108737605887335, 44.701427336422469 ] } },
{ "type": "Feature", "properties": { "id": null }, "geometry": { "type": "Point", "coordinates": [ 12.108871396039138, 44.701456891839776 ] } },
{ "type": "Feature", "properties": { "id": null }, "geometry": { "type": "Point", "coordinates": [ 12.108828269445009, 44.70146869119808 ] } },
{ "type": "Feature", "properties": { "id": null }, "geometry": { "type": "Point", "coordinates": [ 12.108788719478124, 44.701477737021811 ] } },
{ "type": "Feature", "properties": { "id": null }, "geometry": { "type": "Point", "coordinates": [ 12.108746451495433, 44.701488184921615 ] } }
]
}
